ID Company,Country,Outlet Name,Street,Postal_Code,City,International_Preselect,Phone,Email
1,France,GARAGE DEMORTIER & FILS,282 PLACE FERRER,59264,ONNAING,+33,03 27 35 47 06,fordonnaing@wanadoo.fr
2,France,LA CARROSSERIE DE LA PRESQU'ILE,ZA de Kerdanvez,29160,CROZON,+33,02 98 27 25 97,lacarrosseriedelapresquile@gmail.com
3,France,DUGARDIN AUTOMOBILES,Rue de la Latte Prolongée,59223,RONCQ,+33,03 20 28 29 99,pcallebaut@groupedugardin.fr
4,France,DUGARDIN AUTOMOBILES,47 chemin des Cavaliers,62120,AIRESURLALYS,+33,03 21 98 58 05,pcallebaut@groupedugardin.fr
5,France,SAM AUTO,PONT MESGRALL,29800,LAFORESTLANDERNEAU,+33,02 98 20 28 23,moal.anthony@free.fr
6,France,ENZO MAIORANA,110 Rte de Collonges,74160,Archamps,+33,04 50 43 72 97,enzomaiorana74@gmail.com
7,France,GARAGE DU COJEUL,10 rue G. Debeugny,62128,HENINsurCOJEUL,+33,03 21 22 55 92,garage.ducojeul@orange.fr
8,France,GARAGE DE LA RAMPE,109 rue du Fief du Château,49530,DRAIN,+33,02 40 98 23 21,garagedelarampe@orange.fr
9,France,GARAGE GIRAUDEAU,Rue Pierre Chambord,87150,ORADOURsurVAYRES,+33,05 55 78 10 82,garage.giraudeau@wanadoo.fr
10,France,GARAGE HOVART,75 rue Louis Braille,59790,RONCHIN,+33,03 20 53 99 12,Marie.RAMEAUX@wanadoo.fr
11,France,GARAGE DUPONT,18 rue du Planty,86300,CHAUVIGNY,+33,05 49 46 96 68,garagedupontsarl@hotmail.fr
12,France,PROVOST AUTOMOBILES,ZA le Pré Vert,86600,SAINTSAUVANT,+33,05 49 59 72 26,gprovostautomobiles@gmail.com
13,France,CARHAIX J-B AUTOMOBILE,5 rue Raymond Poincaré,29270,CARHAIX,+33,02 98 93 04 29,carhaixauto-ford@wanadoo.fr
14,France,LITTORAL AUTOMOBILE,Pendreff,29120,PLOMEUR,+33,02 98 58 13 96,littoral.auto@wanadoo.fr
15,France,GARAGE GOUREAU,47 avenue du Gâtinais,45110,CHATEAUNEUF/LOIRE,+33,02 38 58 92 46,ford-chateauneuf@hotmail.fr
16,France,GARAGE RELAIS DU LORMOY,"34, route de Montlhéry",91310,LONGPONTsurORGE,+33,01 69 01 08 59,relaisdelormoy@hotmail.fr
17,France,AUTOMOBILES JUSTEAU,"1, rue de Toscane - La Bérangerais",44240,LACHAPELLESURERDRE,+33,02 40 29 71 71,automobiles@justeau.fr
18,France,GARAGE MARSAC,19 rue des Forges,44110,ERBRAY,+33,02 40 55 01 23,garagealainmarsac@orange.fr
19,France,BRIAND AUTOMOBILES,4 rue de la Concorde,44130,BLAIN,+33,02 40 79 84 73,alain.briand21@wanadoo.fr
20,France,GARAGE GAUTIER,6 rue Joseph Cugnot,44470,CARQUEFOU,+33,02 40 50 85 35,ggegautier@hotmail.fr
21,France,GARAGE SCHOULEUR,RN12 Lieu-dit Les gaillons,61400,SAINTLANGISLESMORTAGNE,+33,02 33 25 10 01,sarl.schouleur@wanadoo.fr
22,France,GARAGE COMBOT,Avenue F. Mitterand,56600,LANESTER,+33,02 97 76 23 28,jose.combot@wanadoo.fr
23,France,GESTEL AUTOMOBILES,15 rue de Lesbin,56530,GESTEL,+33,02 97 05 05 45,gestel.automobiles@wanadoo.fr
24,France,RM AUTOMOBILES,24 rue de Scaer,29380,BANNALEC,+33,02 98 39 80 61,contact@rmauto-ford.com
25,France,GARAGE SUEUR,Rue du Puits à Marne,80700,ROYE,+33,03 22 87 01 12,garage.sueur80@orange.fr
26,France,GARAGE DE BRUYERES,87 rue de la Libération,91680,BRUYERESLECHATEL,+33,01 64 90 30 03,chocars91@gmail.com
27,France,GARAGE RICHEROLLE,101 avenue de Paris,91410,DOURDAN,+33,01 64 59 72 11,lauryane.richerolle@aliceadsl.fr
28,France,GARAGE LES 3 COURONNES,RD 160,85130,LAVERRIE,+33,02 51 65 97 73,gge-3couronnes@wanadoo.fr
29,France,GARAGE MADIOT,27 rue Gaston Joubin,49500,SEGRE,+33,02 41 92 14 70,garage.madiot@wanadoo.fr
30,France,GARAGE DELEPINE-BELBEZE,ZA Route de Seiches,49330,ETRICHE,+33,02 41 42 14 88,garage.delepine@yahoo.fr
31,France,GARAGE FORGET,Baulieu,49124,PLESSIS-GRAMMOIRE,+33,02 41 76 54 76,garage.forget@wanadoo.fr
32,France,GARAGE POUPET,10 avenue des Sables,85500,LESHERBIERS,+33,02 51 91 00 59,contact@garagepoupet-lesherbiers.fr
33,France,GARAGE LEMOINE,ZA Le Prad Velin,44740,BATZ-SUR-MER,+33,02 40 23 93 16,garage-lemoine@wanadoo.fr
34,France,LA BAULE AUTOMOBILES,12 rue de la grenouille verte,44350,GUERANDE,+33,02 40 60 23 62,labaule-autos@orange.fr
35,France,GARAGE GUERIN,29 rue du Mené,22600,LOUDEAC,+33,02 96 28 04 97,guerin.garage.ford@hotmail.fr
36,France,GARAGE LACROIX HELAOUET,25 Route Sainte Suzanne,22530,MURDEBRETAGNE,+33,02 96 28 50 18,lacroix-helaouet@orange.fr
37,France,GARAGE VALLEE MICKAEL,"12, rue Duguay Trouin",35300,FOUGERES,+33,02 99 99 69 59,garage.mickael.vallee@orange.fr
38,France,LEPANNETIER AUTOMOBILES,35140 SAINT AUBIN DU CORMIER,tél:0,299391166,+33,Not Available,lepannetier.auto@orange.fr
39,France,BROCELIANDE AUTO FORD,Z.A. Du bois vert B.P 40,56800,PLOERMEL,+33,02 97 74 00 51,broceliande.auto@wanadoo.fr
40,France,GARAGE SIMMONNEAU,ZA De l'Espérance BP 30014 St Hilaire de Loulay,85600,MONTAIGU,+33,02 51 94 02 68,simonneau.automobiles@orange.fr
41,France,AM AUTOS,20 route de Pontchâteau,44530,DREFFEAC,+33,02 40 66 90 35,am.automobiles@wanadoo.fr
42,France,LES JARRIES AUTOMOBILES,ZAC Les terres Jarries II Rue du Traité de Paris,44210,PORNIC,+33,02 40 82 35 11,fordpornic2@gmail.com
43,France,GARAGE ROUXEL,8 rue de la Barre,35600,REDON,+33,02 99 71 17 65,garage.rouxel@wanadoo.fr
44,France,LANGON AUTO SERVICES,ZA de la Gaudinais,35660,LANGON,+33,02 99 08 77 47,las.35@orange.fr
45,France,GARAGE CARROSSERIE GABILLARD,ZA LA GAUTRAIS,35360,MONTAUBANDEBRETAGNE,+33,02 99 06 40 84,carrosseriegabillard@orange.fr
46,France,GARAGE DE LA BERLAUDAIS,Le Choisel,35320,POLIGNE,+33,02 99 43 85 85,garagedelaberlaudais@wanadoo.fr
47,France,GARAGE LOUYER,ZI de Bellevue,35220,CHATEAUBOURG,+33,02 99 00 31 66,louyer.automobiles@yahoo.fr
48,France,GARAGE HEUDRE,"10, rue de la Briqueterie",35500,VITRE,+33,02 99 74 40 20,garage-heudre@fordvitre.com
49,France,GARAGE MEYNARD,ZA LA VILLE au Coq,35800,SAINTLUNAIRE,+33,02 99 88 02 81,pierrickmeynard@orange.fr
50,France,BETTON AUTOMOBILES,27 RUE DU MONT SAINT MICHEL,35830,BETTON,+33,02 99 55 77 07,emoussart@yahoo.fr
51,France,MARCHE EUROPEEN DE L'AUTOMOBILE,1401 Route de Tournai,59500,DOUAI,+33,03 27 92 99 21,rquesnoy@meaauto.com
52,France,ESS AUTO 102,102 Avenue des Roissys Hauts BP 4 - RN 191,91540,ORMOY,+33,01 69 90 06 90,essauto102@gmail.com
53,France,GARAGE MARTEGOUTES,68 Avenue de l\\\'Europe,33350,SAINTMAGNEDECASTILLON,+33,05 57 40 11 78,garagemartegoutes@orange.fr
54,France,FONTENAY AUTOMOBILES,39 Route de Fontenay,85200,PISSOTTE,+33,02 51 50 10 00,annickraison.fontenayautomobiles@orange.fr
55,France,GROUSSET AUTOMOBILES,Route de Niort,79160,COULONGESSURL'AUTIZE,+33,05 49 06 01 12,f.delmas@orange.fr
56,France,MAROT AUTOMOBILES,Village d'Entreprises,85700,POUZAUGES,+33,02 51 57 07 92,marot.automobiles@wanadoo.fr
57,France,GARAGE FIEVET ET FILS,"1486, Route Nationale",59310,COUTICHES,+33,03 20 61 83 24,m.fievet@wanadoo.fr
58,France,APG AUTOS,Rue de la chapelle,59940,ESTAIRES,+33,03 28 48 97 28,aymeric.guaquier@wanadoo.fr
59,France,DR AUTOMOBILES,6 Rue du 4 septembre 1944,62196,HESDIGNEULLESBETHUNE,+33,03 21 01 44 25,david.riviere18@wanadoo.fr
60,France,GARAGE DE LA GARE,57 Rue des déportés,59154,CRESPIN,+33,03 27 45 57 09,demortier.michel@wanadoo.fr
61,France,GARAGE LESNIS,Rue de l'Hippodrome,14130,PONTLEVEQUE,+33,02 31 65 63 67,ggelesnis@wanadoo.fr
62,France,ALLIANCE AUTOS,1 Avenue du Général Leclerc,10200,BARSURAUBE,+33,03 25 27 01 23,allianceautos.10@orange.fr
63,France,GARAGE HEUDIER,Route du Mollay Littry,14400,BAYEUX,+33,02 31 92 15 90,heudier.ford@wanadoo.fr
64,France,SP RACING,4 Bis rue Madame Curie,08000,CHARLEVILLEMEZIERES,+33,03 24 59 34 66,garagespracing@gmail.com
65,France,GARAGE ALAIN BOUCHARD,12 Rue du 8 Mai 1945,80290,EQUENNESERAMECOURT,+33,03 22 90 02 91,garagebouchard@club-internet.fr
66,France,GARAGE PLANCKEEL,15 Rue de la sablière,62330,Isbergues,+33,03 21 02 35 83,garage.planckeel@orange.fr
67,France,GARAGE BOUTROUILLE,65 Rue Gambetta,59540,CAUDRY,+33,03 27 85 31 96,ford.ledieu@wanadoo.fr
68,France,GARAGE DANIEL,Grande Rue,27330,LABARREENOUCHE,+33,02 32 46 38 51,jerome.daniel@orange.fr
69,France,GARAGE ADN (AUTO DEPANNAGE DU NOYONNAIS),342 Rue d'Hesdin - ZI EST,60400,NOYON,+33,03 44 93 33 66,garage.adn@orange.fr
70,France,JLG AUTOMOBILES,433 B Rue Henri Lefebvre,62660,BEUVRY,+33,03 21 56 39 79,automobiles.jlg@wanadoo.fr
71,France,GARAGE BRUYEZ,21 Rue Gambetta,80110,MOREUIL,+33,03 22 09 70 50,bruyez@hotmail.fr
72,France,BL MOTEURS AUTO MOTO,RN 10 Guilbert,28800,BONNEVAL,+33,02 37 47 36 19,blmoteurs@wanadoo.fr
73,France,GARAGE DE LA PLAINE,RN 23,28300,AMILLY,+33,02 37 32 98 16,garagedelaplaine@sfr.fr
74,France,GARAGE LALANNE,390 avenue de la liberté,40350,POUILLON,+33,05 58 98 21 59,garagelalanne@orange.fr
75,France,ABL AUTOMOBILES,Rue de l'Industrie,64700,HENDAYE,+33,05 59 20 62 40,abl.caroline@orange.fr
76,France,PACY AUTOMOBILES / garage de la pate d'oie,123 Rue Isambard,27120,PACYSUREURE,+33,02 32 26 06 05,pacyauto@sfr.fr
77,France,AUTO TECHNIC,4 Rue Malicet,08200,SEDAN,+33,03 24 42 79 74,auto-technic@live.fr
78,France,GARAGE DAUTRICHE,331 Rue du 8 mai,62232,HINGES,+33,03 21 56 31 07,garage-dautriche@orange.fr
79,France,FEELING AUTO,220 Avenue de la Cote d'argent,33380,BIGANOS,+33,05 56 82 74 34,feeling.auto@wanadoo.fr
80,France,GARAGE REMI TRAGIN,3 Rond point de Médine,27350,CAUVERVILLE,+33,02 32 57 47 06,remi.tragin@wanadoo.fr
81,France,BRIENNE AUTOS,12 Rue Albert Delatour,10500,BRIENNELECHÂTEAU,+33,03 25 92 80 39,brienne.autos@orange.fr
82,France,GARAGE LAURENT LHUILLIER,26 AVENUE BERNARD PIEDS BAR SUR SEINE,10110,BARSURSEINE,+33,03 25 29 75 55,garage.lhuillier@orange.fr
83,France,GARAGE DE VILLEMARION,ZA de Villemarion,56670,RIANTEC,+33,02 97 11 01 62,garagedevillemarion@orange.fr
84,France,MBA Auto,Route Nationale 10,28200,LACHAPELLEDUNOYER,+33,02 37 45 82 82,mba.auto28@orange.fr
85,France,GARAGE CUNEO,8 chemin de Golemme,74600,SEYNOD,+33,04 50 69 12 78,cuneo.peter@orange.fr
86,France,KLS Carrosserie,59 Rue Parmentier,62400,BETHUNE,+33,03 21 56 26 33,carleplus@yahoo.fr
87,France,GARAGE DU CAPDALLIECH,1 Route de Murviel,34660,COURNONTERRAL,+33,04 67 85 05 10,harold.derrien@yahoo.fr
88,France,GARAGE MUDAISON MECANIQUE,"7 Bis, Route de la SICA",34130,MUDAISON,+33,04 67 16 07 04,tzhirtz@wanadoo.fr
89,France,LITTORAL AUTOMOBILES,"19, Boulevard Isnardon",13016,MARSEILLE,+33,04 91 46 47 05,littoral.automobiles@orange.fr
90,France,GARAGE DU CLOS DE MAROLLES,ZA De Pierres - Rue de l'Europe,28130,MAINTENON,+33,02 37 20 04 69,closdemarolles@yahoo.fr
91,France,GARAGE COQUEL,46 Rue Capitaine Caillon,54230,NEUVES-MAISONS,+33,03 83 47 26 21,sarl.coquel@wanadoo.fr
92,France,CL AUTOMOBILES,347 Routes d'Etampes,91150,BRIERESLESSCELLES,+33,01 69 92 92 78,cl-automobiles91@orange.fr
93,France,GARAGE DU BEAUSOLEIL,"2, Rond Point de Beausoleil",49450,SAINTMACAIREENMAUGES,+33,02 41 55 34 76,garage.beausoleil@wanadoo.fr
94,France,GARAGE DE LA PYRAMIDE,"51, Route Nationale 6",91800,BRUNOY,+33,01 60 46 59 38,pyramide@zelusautos.com
95,France,GARAGE LOUIS,"16, Rue des Vosges",54300,REHAINVILLER,+33,03 83 71 50 36,garage.louis2@wanadoo.fr
96,France,GARAGE DESA,28 route d'Euville,55200,COMMERCY,+33,03 29 91 02 03,garage.desa@wanadoo.fr
97,France,GARAGE BIDOLI,31 Rue D'Elboeuf,27110,IVILLE,+33,02 32 35 01 96,garage_bidoli@yahoo.fr
98,France,GARAGE MECA NICO,41 Avenue de Buley,01300,VIRIGNIN,+33,06 23 75 73 82,pegoud.nicolas@orange.fr
99,France,GARAGE CENTRAL LOUPEEN,Impasse de la Cerisaie,28240,LALOUPE,+33,02 37 81 07 28,garage.loupeen@wanadoo.fr
100,France,GARAGE FORT,Rue Capitaine Maillard,57220,BOULAY,+33,03 87 57 30 42,garage.fort@gmail.com
101,France,GARAGE CENTRAL / SARL B.A.C.,ZA De l'Aiglette - 274 rue des transporteurs,01170,GEX,+33,04 50 41 21 36,sarlbac@aol.com
102,France,GARAGE FOREZ,ZI Du Forum,42110,FEURS,+33,04 77 26 15 14,micheldevoucoux@hotmail.fr
103,France,GARAGE SAINT JOSEPH DA SILVA,1 Rue Saint Joseph,42000,SAINT-ETIENNE,+33,04 77 49 07 07,garage-st-joseph@wanadoo.fr
104,France,MICHEL VACHERON AUTOMOBILES,5 Nouvelle rue des fours à chaux,42600,SAVIGNEUX,+33,04 77 97 63 58,contact@vacheron-automobiles.com
105,France,CARROSSERIE MODERNE,Rue de Metz,57120,ROMBAS,+33,03 87 67 06 80,car-moderne@orange.fr
106,France,GARAGE DE L'HIPPODROME,Route de Cuzieu,42330,SAINTGALMIER,+33,04 77 52 77 36,garage.de.lhippodrome@orange.fr
107,France,AGENCE PINEAU BOSSARD,39 Rue du Maréchal Leclerc,85800,SAINTGILLESCROIXDEVIE,+33,02 51 55 19 25,fordstgilles@wanadoo.fr
108,France,GARAGE BOSC,76 rue des pyrenees,31330,GRENADE,+33,05 61 82 78 90,garage.bosc@cegetel.net
109,France,AUTO SPORT GARAGE,219 bis chemin de boudou,31140,LAUNAGUET,+33,05 61 70 26 68,lionel.solano@orange.fr
110,France,GARAGE DE LA GARE,"1 Bis, avenue de Toulouse",31220,CAZERES,+33,05 61 97 03 64,ggedelagare.cazeres@gmail.com
111,France,SVEM MESSERDACHE,"70, Bd Marcel Pagnol",13127,VITROLLES,+33,04 42 89 39 17,s.v.e.m@wanadoo.fr
112,France,LE RELAIS DE PLENEY,"195, Route de la Plagne",74110,MORZINE,+33,04 50 75 96 91,relaisdupleney@orange.fr
113,France,GARAGE ROUSSINEAU,"10, Le bourg",41310,SAINTGOURGON,+33,02 54 82 81 70,garage-roussineau@orange.fr
114,France,MT AUTO 83,"11, Avenue des Ilaires",83980,LELAVANDOU,+33,04 94 15 02 30,auto.rep83@wanadoo.fr
115,France,GT AUTOMOBILES,Le Reyranet D37 - Bretelle Autoroute,83600,FREJUS,+33,04 94 52 06 77,automobiles.gt@wanadoo.fr
116,France,GARAGE LE COLOMBIER,962 Route des Combattants AFN,83600,FREJUS,+33,04 94 17 13 25,garage-le-colombier@wanadoo.fr
117,France,GARAGE BARBIAN,"5, Rue de Diesen",57490,CARLING,+33,03 87 93 27 55,tazmann57@wanadoo.fr
118,France,GARAGE MUNERET,"8, Rue des Masey",25170,RECOLOGNE,+33,03 81 58 11 81,garagemuneret@wanadoo.fr
119,France,ESPACE VO,"9, Rue Gustave Eiffel ZA La grande Terre",30620,AUBORD,+33,04 66 71 26 22,garage@espace-vo30.fr
120,France,GARAGE LANSARD,Chemin des fours,74150,HAUTEVILLESURFIER,+33,04 50 60 51 58,garagelansard@gmail.com
121,France,GARAGE MECA - ELEC,22 route de Périgueux,24460,CHATEAUL'EVEQUE,+33,05 53 09 13 76,meca.elec@hotmail.fr
122,France,GARAGE BRUNO,zone artisanale Econ L'Arbalestrier,33220,PINEUILH,+33,05 57 46 41 41,garagebrunoherve@wanadoo.fr
123,France,GARAGE FRANC-COMTOIS BEUQUE,La tranche,25500,MORTEAU,+33,03 81 67 07 99,ggefranccomtois-beuque@wanadoo.fr
124,France,GARAGE TIFLIZ NAKI,"8, route de Colmar",67860,BOOFZHEIM,+33,03 88 74 65 71,garage.tifliz@laposte.net
125,France,PRADET GARAGE,"405, Avenue de la 1ère D.F.L.",83220,LEPRADET,+33,04 94 21 76 75,denis.giraudo@wanadoo.fr
126,France,GARAGE MECA BG,"16, Faubourg de Niederbronn",67110,REICHSHOFFEN,+33,03 88 09 99 20,contact@mecabg.fr
127,France,GARAGE DF AUTOMOBILES,LIEU DIT POIRIER RENARD,54210,MANONCOURTENVERMOIS,+33,03 83 46 54 34,dfautomobiles@free.fr
128,France,GARAGE REGIS CANNO,Route de Plouay,56240,PLOUAY,+33,02 97 32 08 33,garageregiscanno@orange.fr
129,France,AGC JFB,"9, Route de la salle",74960,CRANGEVRIER,+33,04 50 46 97 56,agcjfb@bbox.fr
130,France,GARAGE BESSON,74 Route de Paris,69160,TASSINLADEMILUNE,+33,04 72 38 09 04,garagefordbesson@orange.fr
131,France,GARAGE AUTO QUALITE SERVICES,84 Chemin condamine ZA Le Plan,83550,VIDAUBAN,+33,04 94 73 01 03,auto.qualite.services@orange.fr
132,France,GARAGE JLZ,1 rue Canette,33430,BAZAS,+33,05 56 65 89 47,jerome.lamothe2@orange.fr
133,France,GARAGE AVRILLON / GARAGE DU MONT BLANC,359 Route de Poisy,74330,POISY,+33,04 50 46 39 06,garage.monad@orange.fr
134,France,PALACE AUTOMOBILE MARSEILLE,"258, avenue des Olives",13013,MARSEILLE,+33,04 91 21 00 03,serbelloni@orange.fr
135,France,GARAGE RF AUTO,Route de moinvrons,54760,LEYR,+33,03 83 31 90 40,rfauto@wanadoo.fr
136,France,GARAGE BAUDRY AUTOMOBILES,Rue des Blés d'or,85400,LUCON,+33,02 51 28 20 20,c.poitevineau@fordlucon.com
137,France,GARAGE CAR-DIS,Roscasquen - Route de Pont-Scorff,29300,QUIMPERLE,+33,02 98 39 36 38,eric.derault@wanadoo.fr
138,France,GARAGE JOUBERT AUTO,"9, Rue de l'industrie",42340,VEAUCHE,+33,04 77 54 61 12,gregory.joubert@sfr.fr
139,France,GARAGE FORD CROUZILLES CAR,"15, Rue Rabelais",37220,CROUZILLES,+33,02 47 58 55 12,fordcc@orange.fr
140,France,GARAGE DRAPEAU,"23, Rue de l'Aunis",17290,AIGREFEUILLE,+33,05 46 35 50 09,aigrefeuille@pda-lr.fr
141,France,GARAGE THIERRY ROSSET,"ZA du Cudray310, Route de Thône",74210,FAVERGES,+33,04 50 32 51 78,t-rosset@wanadoo.fr
142,France,GARAGE A L'ATELIER PONS ROMAIN,Zone Artisanale du Quengo,56580,Rohan,+33,02 97 38 98 98,alatelierponsromain@gmail.com
143,France,GARAGE DU LITTORAL,"16, Rue DuquesneZA du Pont Bredouille",33950,LEGECAPFERRET,+33,05 56 60 01 69,garagedulittoral@hotmail.fr
144,France,GARAGE CHINON AUTOMOBILES,"15, Rue Pierre latécoère",37500,CHINON,+33,02 47 40 88 88,pbague@chinonautomobiles.fr
145,France,Eternum Automobiles,Z.A. Auguenaud Route de Pons,17500,SAINTMARTIALDEVITATERNE,+33,05 46 48 73 86,eternum.automobiles@orange.fr
146,France,GARAGE GIRAUD,"10, Rue des Croisettes",79410,ECHIRE,+33,05 49 25 73 96,giraud.automobiles@wanadoo.fr
147,France,GARAGE GREGOIRE,"12, Rue de Rennes",35460,SaintMarcleblanc,+33,02 99 95 02 94,garage-gregoire@orange.fr
148,France,GARAGE SEMUR AUTO SERVICES,Route de Dijon,21140,SEMURENAUXOIS,+33,03 80 97 02 61,ford.semur@wanadoo.fr
149,France,GARAGE DU RHONE,"26, Avenue du Rhône",74000,ANNECY,+33,04 50 45 30 65,gdrdurhone@gmail.com
150,France,GARAGE JSA - SARL MISITI,"3066, Avenue des Vallées",74300,THYEZ,+33,04 50 34 53 89,garagejsa@orange.fr
151,France,GARAGE DOISY,"1, Rue Pasteur",92110,CLICHY,+33,01 47 37 72 25,garage.doisy@orange.fr
152,France,GARAGE AUTOMOBILES DE LA PAGODE,Boulevard Saint Denis Hors,37400,AMBOISE,+33,02 47 57 07 64,autodelapagode@gmail.com
153,France,GARAGE VINETTE,La Croix Verte,35650,LERHEU,+33,02 99 60 72 19,vinetteautomobiles@organge.fr
154,France,GARAGE AGDE SEB AUTO,3 rue Pierre Paul Riquet,34300,AGDE,+33,04 64 94 22 45,agde.seb.auto@outlook.fr
155,France,GARAGE CARROSSERIE GAUTHIER,Quartier Les Grands Moulins,26220,DIEULEFIT,+33,04 75 00 13 61,gauthier.eric@orange.fr
156,France,GARAGE MENILLES AUTOMOBILES,"20, Rue jules coignard",27120,PACYSUREURE,+33,Not Available,o-leroy@hotmail.fr
157,France,GL AUTO,"63, avenue de la libération",72800,LELUDE,+33,02 43 94 63 40,gl-auto@orange.fr
158,France,GARAGE BEAUFORT,"225, Rue Aristide Briand",27130,VERNEUILSURAVRE,+33,02 32 32 10 63,garage.beaufort@orange.fr
159,France,GARAGE FOURCROY,Zone Artisanale du Grand Étang,22580,PLOUHA,+33,02 96 20 35 67,sarl.fourcroy@orange.fr
160,France,GARAGE FERREIRA,"8, rue Jacques Bernis",87100,LIMOGES,+33,05 55 50 34 23,ferreiracarrosserie@gmail.com
161,France,GARAGE PHILIPPINE,"6, Rue Pierre Gauthier",33320,Eysines,+33,05 56 28 16 60,garage.philippine@gmail.com
162,France,GARAGE ABS,4 boulevard Alcide Laucon,33290,Blanquefort,+33,Not Available,absparempuyre@wanadoo.fr
163,France,GARAGE PARGNY AUTOMOBILES,"3, Route de dormans",51390,PARGNYLESREIMS,+33,03 26 49 21 86,sebastien.pottier84@sfr.fr
164,France,GARAGE BDN,La Morleyere,44540,MAUMUSSON,+33,02 40 96 67 67,bdn.maumusson@orange.fr
165,France,GARAGE FROMENTIN,Les landes,44520,LAMEILLERAYEDEBRETAGNE,+33,02 40 55 20 20,garage.fromentin0221@orange.fr
166,France,TY GARAGE,9 rue île de la jument,56870,BADEN,+33,02 97 57 22 95,tygarage@orange.fr
167,France,GARAGE EUROAUTO73,"88, Allée des Erables",73420,DRUMETTAZ-CLARAFOND,+33,04 79 61 53 45,euroauto73@wanadoo.fr
168,France,GARAGE CL DEPANNAGE,102 route de champ biolay,01460,BEARDGEOVREISSIAT,+33,04 74 76 28 53,cldepannage@orange.fr
169,France,GARAGE BEAUMONT AUTOMOBILE,104 rue Nationale,63110,BEAUMONT,+33,04 73 27 76 57,beaumont.automobiles@cgsi.eu
170,France,GARAGE AUTOSTYL,"14, Avenue du Béarn",64530,PONTACQ,+33,05 59 53 63 71,autostyl@cegetel.net
171,France,GARAGE QUERE YVES,1 rue Paul Gauguin,29260,LESNEVEN,+33,02 98 83 11 61,yves.quere.ford@wanadoo.fr
172,France,Garage FAUCHART,3 rue Pierre Honoré Simonnet,5110W,ARMERIVILLE,+33,03 26 03 50 70,ggefauchart@hotmail.fr
173,France,GARAGE RACLOT GERARD,39 boulevard Carnot,51130,VERTUS,+33,03 26 52 11 71,ets-olivier-raclot@orange.fr
174,France,GARAGE DES CHARMANCHES,173 avenue Ambroise Crozat,38920,CROLLES,+33,04 76 08 90 77,accueil@fordcharmanches.fr
175,France,GARAGE MAURECOURT AUTOMOBILES,49 rue Maurice Bertaux,78780,MAURECOURT,+33,01 39 74 27 42,maurecourt.automobiles@wanadoo.fr
176,France,GARAGE VOISIN,32 ter route nationale,16270,ROUMAZIERES-LOUBERT,+33,05 45 71 21 27,fabrice.coculet@orange.fr
177,France,GARAGE BSN,36 route nationale,45460,,+33,02 38 35 50 04,bsn@orange.fr
178,France,GARAGE LA JASS'AUTO,411 Rue André Boulle,30100,ALES,+33,04 66 56 57 71,lajassauto@orange.fr
179,France,GARAGE SANTANGELO,132 rue Roger Posty,08320,VIREUXMOLHAIN,+33,03 24 41 84 57,gianni.santangelo@wanadoo.fr
180,France,GARAGE DESMET,595 rue de Lille,59223,RONCQ,+33,03 20 94 22 16,garage-desmet@nordnet.fr
181,France,GARAGE DEVAUD,1564 route de la vallée de la nouère,16290,ASNIERESSURNOUERE,+33,05 45 96 91 56,jean-michel.devaud@wanadoo.fr
182,France,GARAGE LEROUEIL,5 rue de la verzée,49520,NOELLET,+33,02 41 94 31 41,leroueilautomobiles@gmail.com
183,France,GARAGE MARTIN'S,7 le fief neuf,17260,GEMOZAC,+33,05 46 94 27 87,carrosseriemartins@gmail.com
184,France,GARAGE VINCENT,357 rue de la bossarderie,44150,ANCENIS,+33,02 40 83 17 96,garagevincent@wanadoo.fr
185,France,GARAGE EUROCARLAND,20 rue de la résistance,59350,SAINTANDRÉLEZLILLE,+33,03 20 40 67 18,thierry@eurocarland.com
186,France,GARAGE GROUSSET,1 route de lambon,79370,CELLESSURBELLE,+33,05 49 79 80 54,damien-grousset@orange.fr
187,France,ALEX GARAGE DES LACS,ZA La plaine,12290,PONTDESALARS,+33,05 65 58 76 63,alex.garagedeslacs@gmail.com
188,France,GARAGE AM AUTOS,804 rue Santos Dument,01200,CHATILLONENMICHAILLE,+33,04 50 48 09 40,garage-am-autos@orange.fr
189,France,Garage MAD,131 rue Florent Evrard,62260,Auchel,+33,03 61 88 03 07,mad.allopneus@orange.fr
190,France,GARAGE ANGRES,48 bis rue Roger Salengro,62143,ANGRES,+33,03 21 45 15 54,angresautomobile@gmail.com
191,France,GARAGE PATRICK CASSANT,La couture,24220,BEZENAC,+33,06 20 04 04 17,cassant.patrick@orange.fr
192,France,GARAGE BRILAN,7 avenue Georges Pompidou,14100,LISIEUx,+33,02 31 63 49 91,ggebrilan@gmail.com
193,France,Willy TRZMIEL,3 rue des jardins,57550,HARGATENAUXMINES,+33,03 87 93 38 95,willytrz@falckhargarten.fr
194,France,GARAGE AUTO EVASION 62,87 rue Justus Bultez,62221,NOYELLESSOUSLENS,+33,06 25 88 91 01,autoevasion62@gmail.com
195,France,FRED MUSTANG GARAGE,4 rue des tisserands,08190,SaultSaintRemy,+33,03 24 38 49 75,fnaneix@aol.fr
196,France,GARAGE DE LA PLAINE,Route de Barjols,83470,SaintMaximinlaSainteBaune,+33,04 94 78 04 12,garagedelaplaine83@yahoo.com
197,France,GARAGE BUFFET,Le Pey,49370,LELOUROUXBECONNAIS,+33,02 41 67 01 74,garage.buffet@orange.fr
198,France,GARAGE GUERIN,66 Rue Camille Guérin,79100,THOUARS,+33,05 49 96 29 31,guerin.eric.garage@wanadoo.fr
199,France,GARAGE REVE AUTOS,2051 Route Nationale,59400,FONTAINE,+33,03 27 70 67 21,reveautos@wanadoo.fr
200,France,Garage Vincent Courmarcel,13 rue Mauriece Ravel,61200,ARGENTAN,+33,02 33 39 77 18,vincent@fordargentan.com
201,France,SARL Bouteiller frères,35 Avenue de la République,17130,MONTENDRE,+33,05 46 49 41 33,sarlbouteiller17130@orange.fr
202,France,Dupuy automobiles,rue St Exupéry,27310,BOURGACHARD,+33,02 32 56 20 08,ford.bourg.achard@wanadoo.fr
203,France,GARAGE SRVO,5 Rue des Echevais,08700,GRANDVILLE,+33,03 24 35 48 06,garage.srvo@gmail.com
204,France,MS Cars,ZA Saint Maur - 45 rue Condorcet,83310,COGOLIN,+33,04 94 54 63 59,fordcogolin@orange.fr
205,France,GARAGE AUTO CANTET,408 route de perrigueux,24300,SAINTMARTIALDEVALETTE,+33,05 53 60 43 58,cantet-didier@orange.fr
206,France,GARAGE DRVA,22 Avenue de la gare,77230,SAINTMARD,+33,01 64 02 74 16,direction@drva.fr
207,France,Garage EG Autos,95 avenue de metz,54700,PONTAMOUSSON,+33,38 03 81 12 57,egcarsas@hotmail.fr
208,France,Jean François MONTEFRANCESCO,9 faubourg des vosges,68800,THANN,+33,03 89 37 16 88,carrosseriejean@wanadoo.fr
209,France,FELDKIRCH AUTO,64 rue principale,68540,FELDKIRCH,+33,03 89 48 80 16,contact@felkirch-autos.fr
210,France,GRENARD AUTOMOBILES,ZAC Grands Planchants,25300,PONTARLIER,+33,03 81 38 33 30,s.georget@groupegrenard.fr
211,France,Alain BLANC,ZAC bois carré,25110,BAUMELESDAMES,+33,03 81 84 18 52,jcr.automobiles@orange.fr
212,France,AUTO PIÈCES MIGUEL,8 rue Paul Langevin,89400,MIGENNES,+33,03 86 92 67 71,autopiecesmiguel@free.fr
213,France,Garage JM Automobiles,Rue paul Fillot,54800,CONFLANSENJARNISY,+33,03 82 22 12 65,sav.conflans@groupemoretto.com
214,France,Garage Neuville Automobiles,510 route de trévoux,69730,GENAY,+33,04 78 91 75 31,ford.neuville.automobiles@wanadoo.fr
215,France,GARAGE V.H.A,2 Rue Augustin Riffault,14540,SOLIERS,+33,02 31 23 19 17,vha@fordsoliers.fr
216,France,Stéphane PIC,ZA Le Messidor,38220,VIZILLE,+33,04 76 68 05 41,relais-oisans@orange.fr
217,France,COSNE AUTOMOBILES,84 avenue du 85 de ligne,58200,COSNECOURSSURLOIRE,+33,03 86 28 23 82,automobiles.cosne@orange.fr
218,France,DM AUTOMOBILES,Avenue pierre et marie curie,51530,OIRY,+33,03 26 52 46 04,dm.automobiles51@gmail.com
219,France,GARAGE DE CAUDERAN,352 Avenue du maréchal de lattre de tassigny,33200,BORDEAUX,+33,05 57 232 08 08,fordgarage.cauderan@gmail.com
220,France,GARAGE DUBOURDIEU ET FILS,108 rue des Tisserands,BISCA,RROSSE,+33,05 58 78 05 97,garagedubourdieu@wanadoo.fr
221,France,GARAGE RPF,ZI Belloc,33340,LESPARREMEDOC,+33,05 56 82 43 06,rpf.automobile@free.fr
222,France,SARL PRESTA MECA ET DEPANNAGE,522 rue du fbg saint thimotee,51230,ferechampenoise,+33,03 26 81 24 54,philippe.parapel@orange.fr
223,France,GARAGE DES PIGNATIERES,106 boulevard Jean Ossola,06700,SAINTLAURENTDUVAR,+33,04 93 31 14 89,pignatieres.cusu@wanadoo.fr
224,France,GARAGE TRICHET,2 Le Calage,44310,SAINTCOLOMBAN,+33,02 40 05 85 62,garagetrichet@orange.fr
225,France,MECA AUTO SERVICES,6 rue des vallées ZA du Châtelet,44170,NOZAY,+33,02 40 79 39 91,mecaautoservices@free.fr
226,France,AZUR GARAGE,78 route de la Paoute,06130,LEPLANDEGRASSE,+33,04 93 09 12 58,azurgarage@free.fr
227,France,F2 TAG,1603 boulevard F. Sauvaigo,06570,STPAUL,+33,04 93 32 78 04,f2tag@wanadoo.fr
228,France,FGS AUTOS,37-39 rue du Pâtis.,88130,CHARMES,+33,03 29 38 15 55,contact@fgs-contact.fr
229,France,CARMECA SARL,15 rue de haspelschiedt,57230,BITCHE,+33,03 87 06 28 04,contact@carmeca.com
230,France,SAS GARAGE DE DORMANS PAYSAGE DE CHAMPAGNE,19 bis rue du docteur moret,51700,DORMANS,+33,03 26 53 20 20,soltysiak.kevin19@gmail.com
231,France,GARAGE GAUTHIER,45 Avenue Felix Gaillard,16300,BARBEZIEUX,+33,05 45 78 19 68,sarlgaragegauthier@gmail.com
232,France,GARAGE GELLOZ,37 rue de l'entreprise,73410,LABIOLLE,+33,06 18 96 58 44,b-gelloz@hotmail.fr
233,France,GARAGE BEYLIER,17 rue Serroux,69170,TARARE,+33,04 74 05 20 21,ggbeylier@orange.fr
234,France,GARAGE GFR AUTO,172 Allée de Clerimbert,69590,Saint-Symphorien-sur-Coise,+33,04 78 44 43 34,gfr.auto@wanadoo.fr
235,France,ADS MECANIQUE,58 Boulevard Waldeck Rousseau,42400,SAINTCHAMOND,+33,04 77 22 04 51,contact@adsmecanique.fr
236,France,Sébastien CHAMBON,Rue Dorian,42700,Firminy,+33,04 77 61 74 51,carrosserie.meilland@wanadoo.fr
237,France,DANIEL CHATAIN AUTOMOBILES,ZA les portes en Velay,43330,PONTSALOMON,+33,04 71 61 64 23,danielchatainautomobiles@gmail.com
238,France,LOIRE AUTO MOBILE,34 route de bonson,42170,SAINTJUSTSAINTRAMBERT,+33,04 77 52 35 90,loireautomobile42340@gmail.com
239,France,BARTHET AUTO,3 avenue de saint lizier,09200,SAINTGIRONS,+33,05 61 66 06 24,barthet.auto@orange.fr
240,France,GDV AUTO,ZA de Nombel,47110,SAINTELIVRADESURLOT,+33,05 53 01 04 61,gdvauto@gdvauto.fr
241,France,GARAGE BELLANDI,Route de Bordeaux,47600,NERAC,+33,05 53 65 08 19,carrosserie-bellandie@wanadoo.fr
242,France,ETS PERUSIN,Route de Perigueux,24260,LEBUGUE,+33,06 01 22 44 35,etsperusin@gmail.com
243,France,GARAGE DEJEAN,Route d'Angoulême,16190,MONTMOREAU,+33,05 45 24 05 14,garage.dejean@yahoo.fr
244,France,BAUDRY AUTOMOBILES,Bd du Vendée Globe,85340,OLONNESURMER,+33,02 51 47 77 47,olonne@baudry-85.fr
245,France,GARAGE PAVIET ROCHE,ZA le Charbonniere,73260,PETITCOEURLALACHERE,+33,04 79 22 51 09,facturation@garagepavietroche.fr
246,France,GARAGE GUION,140 route de bons,74140,LOISIN,+33,04 50 94 14 84,guionautomobiles@wanadoo.fr
247,France,GARAGE BUFFLIER,3115 Avenue du Mont blanc,74800,SAINTPIERREENFAUCIGNY,+33,04 50 97 22 91,frederic.bufflier074@free.fr
248,France,PREMIUM ROYAN AUTOMOBILES,6 rue Robert Schumann,17110,SAINTGEORGESDEDIDONNE,+33,05 46 05 59 00,blamoureux@pra-royan.fr
249,France,AYTRÉ SUD AUTOMOBILES,5 rue léonard de Vinci,17440,AYTRE,+33,05 46 34 32 02,jlsayah@pda-lr.fr
250,France,GARAGE CAQUEUX,Rue de Retortat,51120,SEZANNE,+33,03 26 80 67 00,sezanne.carrosserie@wanadoo.fr
251,France,GARAGE DE L'EST,ZI des Bouquières,25400,EXINCOURT,+33,03 81 31 15 15,commercial.exincourt25@orange.fr
252,France,SAS GILLET AUTOS,1 AVENUE DE LATTRE DE TASSIGNY,90200,ROUGEGOUTTE,+33,03 84 29 34 68,ford.gilletautos@gmail.com
253,France,THIERRY BLANC,6 rue de l'Artisanat,67210,OBERNAI,+33,03 88 48 64 86,thierry.bland@garage-keller.com
254,France,MS AUTOMOBILES,3 rue Claude Louis Berthollet,51000,CHALONSENCHAMPAGNE,+33,03 26 21 23 10,ms-automobiles@orange.fr
255,France,GARAGE SCHMITT,37 grande rue,57450,FAREBERSVILLER,+33,03 87 89 13 67,garage.schmitt@free.fr
256,France,GARAGE KLEIN,2 rue Louis Pasteur,57160,WISSENBOURG,+33,03 88 54 96 00,info@klein-freres.fr
257,France,GARAGE MEICHEL,57 route de Lauterbourg,67470,MOTHERN,+33,03 88 94 83 11,garage.meichel@wanadoo.fr
258,France,GARAGE SCHAEFFER AUTOMOBILES,1 route de Kirchheim,67520,MARLENHEIM,+33,03 88 87 55 64,ford-contact@garage-schaeffer.com
259,France,GARAGE WELMELINGER,15 rue de la République,68640,WALDIGHOFFEN,+33,03 89 25 82 65,Jos.ets.welmelinger@orange.fr
260,France,SCHWEITZER AUTO,198 rue Albert Schweitzer,68270,WITTHENHEIM,+33,03 89 52 61 12,schweitzerauto@free.fr
261,France,GARAGE LORRAIN,31 rue saint Rémy,54700,MAIDIERES,+33,03 83 81 02 58,herve.lorrain@free.fr
262,France,GARAGE KELLER ROGER ET FILS,15 route de sessenheim,67620,SOUFFLENHEIM,+33,03 88 86 74 97,cyrille@garagekeller.com
263,France,GARAGE SCHRAMM,10 rue Mercure,67120,DORLISHEM,+33,03 88 38 16 69,schrammsarl@wanadoo.fr
264,France,GARAGE LOIZEAU,Les 4 routes,85110,SIGOURNAIS,+33,02 51 40 43 87,contact@garageloizeau.fr
265,France,GARAGE GANDER,25 Rue du Faubourg Saint-Vincent,74300,CLUSES,+33,04 50 98 49 38,info@garage-gander.com
266,France,GARAGE DU NANTY,381 Avenue des Vallées,74300,THYEZ,+33,04 50 98 33 50,garagedunanty@cegetel.net
267,France,SARL FRANCES CANDIARD,"3, allée du Comminges",31770,COLOMIERS,+33,05 61 78 02 53,garagacandiard@gmail.com
268,France,PERICAUD CHATELLERAULT,42 Boulevard d'Estrées,86100,CHATELLERAULT,+33,05 49 20 44 43,guillaume-peltier@pericaud-automobiles.fr
269,France,GARAGE ROUGIER,18 rue de Lorraine,16800,SOYAUX,+33,05 45 95 17 26,garage.rougier@yahoo.fr
270,France,GARAGE COTLEUR,1 rue Sabot,01800,CHARNOZSURAIN,+33,04 74 34 73 32,garage@cotleur.fr
271,France,GARAGE TURBO 2000,"209, rue des mercières",69140,RILLEUXLAPAPE,+33,04 78 97 37 37,sra.turbo2000@wanadoo.fr
272,France,GL AUTOMOTIVE,131 Avenue Jean Jaurès,69600,OULLINS,+33,04 78 51 39 02,s.guillard@gl-automotive.fr
273,France,GARAGE DUPUY,13 avenue Bel air,17310,STPIERRED'OLERON,+33,05 46 47 00 53,garagedupuy.ford@wanadoo.fr
274,France,GARAGE THOMER & FILS,36 Avenue saint pierre,17700,SURGERES,+33,05 46 07 10 98,garagethomerford@wanadoo.fr
275,France,RS LINE,62 route de bordeaux,33780,SOULACSURMER,+33,Not Available,rsline@rsgroupe33.com
276,France,GARAGE DE L EUROPE,"168, Rue Nationale",33240,SAINTANDREDECUBZAC,+33,05 57 43 03 95,garageeurope@wanadoo.fr
277,France,GARAGE PSR AUTO,10 route de pierre,71270,BELLEVESVRE,+33,03 85 72 46 62,psrauto@outlook.fr
278,France,AUTO CONNECT 71,1661 La maison blanche,71570,ROMANECHETHORINS,+33,03 85 35 54 65,contact@ac71.com
279,France,GARAGE DU HEYRITZ,17 petit Heyritz,67100,STRASBOURG,+33,03 88 34 06 86,ford-heyritz@wanadoo.fr
280,France,GARAGE JM AUTOMOBILES VITRY,41 Faubourg de Saint-Dizier,51300,VITRYLEFRANCOIS,+33,03 26 74 35 04,s.moretto@groupemoretto.com
281,France,GARAGE GIACONI,69 avenue Eugénie Cotton,69120,VAULXENVELIN,+33,04 78 80 66 63,ford.ggegiaconi@wanadoo.fr
282,France,LUNEL AUTOMOBILES,20 rue Thomas Edison,34400,LUNEL,+33,04 67 83 02 12,bonelli.christophe@gmail.com
283,France,GARAGE RAYNAL & FILS,6 rue du foulon,34100,LODEVE,+33,04 67 96 43 73,fred.raynal@wanadoo.fr
284,France,GARAGE DES LAUZIERES,13 Avenue de l'industrie,34820,TEYRAN,+33,04 67 87 05 30,garageverdier@orange.fr
285,France,GARAGE TANES BASSES,1 rue de Grenache,34800,CLERMONTL'HERAULT,+33,04 67 96 90 69,direction-tanes-basses@orange.fr
286,France,Antoine GUINET,1 rue Alfred Maurel,34120,PEZENAS,+33,04 67 98 09 60,antoine.guinet@ford-pezenas.com
287,France,S GRIMAUTO SARL,2 rue de Dublin,34200,SETE,+33,04 67 74 48 94,augustin.bernard@groupe-grim.com
288,France,Pascal RAVAIL,Route de saint paul,26700,PIERRELATTE,+33,04 75 04 03 40,pascal.ravail@vr-automobile.com
289,France,GARAGE TINLAND,Le Lac,07000,PRIVAS,+33,04 75 64 32 24,denis.tinland@wanadoo.fr
290,France,RAILLON AUTOS SERVICES,2 route de beauchastel,07800,LAVOULTESURRHONE,+33,04 75 62 00 91,patrick.raillon@wanadoo.fr
291,France,GARAGE CANEL,Rue Roland Garros,07130,SAINTPERAY,+33,04 75 40 53 70,garagecanel@orange.fr
292,France,MARCEL CAULE AUTOMOBILES,Route de Lyon,07430,DAVEZIEUX,+33,04 75 33 22 98,alain.caule@orange.fr
293,France,GARAGE DÉSARD,3 rue Robert Caignan,56100,LORIENT,+33,Not Available,desard.carrosserie@wanadoo.fr
294,France,LYRE AUTOMOBILES,20 rue d'alençon,27330,LANEUVELYRE,+33,06 61 86 17 18,lyre-automobiles@orange.fr
295,France,CVIA,8 rue Gustave Eiffel,26400,CREST,+33,04 75 25 02 82,cvia2@wanadoo.fr
296,France,GARAGE BERTHIER,175 chemin de champagne,07300,TOURNONSURRHONE,+33,04 75 08 29 15,agentfordtournon@gmail.com
297,France,MAURIENNE AUTO DIFFUSION,Rue du Plan Pinet,73300,SAINTJEANDEMAURIENNE,+33,04 79 64 43 10,rapidauto73@wanadoo.fr
298,France,GARAGE COMBES,6 avenue Jean Jaures,63120,COURPIERE,+33,04 73 53 19 13,garagegerardfayet@wanadoo.fr
299,France,DUROHANY AUTOMOBILES,"36, Route de Parentignat",63500,ISSOIRE,+33,04 73 89 16 71,jean-michel.durohany@wanadoo.fr
300,France,GARAGE BOUQUEREL,31 Rue Georges Clemenceau,14310,VILLERSBOCAGE,+33,02 31 77 00 51,garagedelafosse@wanadoo.fr
301,France,SARL RDB,10 rue Jean Moulin,89600,SAINTFLORENTIN,+33,Not Available,relais.bourgogne@wanadoo.fr
302,France,MONTCHAPET AUTOMOBILES,39 chemin de rougemont,39100,FOUCHERANS,+33,03 84 82 12 06,grichard@amplitude-auto.com
303,France,LIGNIER AUTOMOBILES,19 rue Nationale,21800,CRIMOLOIS,+33,03 80 47 33 24,lignier.autos@wanadoo.fr
304,France,SUD AVEYRON AUTOMOBILES,"Garage FORD, Le vern",12400,SAINTAFFRIQUE,+33,05 65 49 30 02,sudaveyronautomobiles@wanadoo.fr
305,France,GARAGE DE L'AUTOROUTE,17 route de Saint Mitre,13110,PORTDEBOUC,+33,04 42 40 15 42,ford.gda@gmail.com
306,France,BY HORIZON,4 impasse des Pins,26240,Saint-Vallier,+33,04 75 23 09 06,zuccari.loic@hotmail.fr
307,France,AUTO DIFFUSION SEDA S.A,36 Boulevard National,13001,MARSEILLE,+33,04 91 62 87 87,autodiffusion@groupe-seda.com
308,France,CL Fournis Auto 27,Avenue Jean Monnet,27500,PONT-AUDEMER,+33,02 32 41 05 48,valentin.petit@fournisauto.com
309,France,CL Fournis Auto 27,Route de Broglie,27300,BERNAY,+33,02 32 43 70 91,nicolas.roselier@fournisauto.com
310,France,Garage Collomb,1 rue Vaucanson,07200,AUBENAS,+33,04 75 35 25 82,carrosserie-collomb@wanadoo.fr
311,France,3A AUTOMOBILES,204-216 Rue François Lota,20600,BASTIA,+33,04 95 31 96 16,pfranchi@3aautos.com
312,France,PETER'S GARAGE,ZI rue Jacques Callot,57600,FORBACH,+33,03 87 85 29 54,hm.jacquescallot@orange.fr
313,France,Garage Forret,Avenue de Paris,63200,RIOM,+33,Not Available,agentford.riom@orange.com
314,France,GMBA,624 rue du Moulin Blan,59230,SAINTAMANDLESEAUX,+33,03 27 22 11 73,gmba-concept@orange.fr
315,France,GARAGE ADM,57 Avenue Clémenceau,59165,AUBERCHICOURT,+33,03 27 92 49 30,garageadm@gmail.com
316,France,SASU BRANQUART AUTOMOBILE,35 rue de Lorraine,02500,HIRSON,+33,03 23 58 07 58,sasu.branquartautomobile@gmail.com
317,France,GARAGE TIMMERMANS,29 Boulevard Charles de Gaulle,42120,LECOTEAU,+33,Not Available,garagetimmermans@orange.fr
318,France,GLD AUTOMOBILES,18 avenue Philippe Seguin Parc de l'Aérodrome,10510,MAIZIERESLAGRANDEPAROISSE,+33,03 25 24 71 58,damien@gld-automobiles.com
319,France,DUROHANY AUTOMOBILES BRIOUDE,Rue Croix Saint Isidore,43100,BRIOUDE,+33,04 71 74 97 66,durohany_63@outlook.fr
320,France,SARL RONDOT AUTOMOBILES,18 rue François Mitterand,21120,ISSURTILLE,+33,Not Available,benoit@rondot-automobiles.com
321,France,Frédéric Jouquand,3 place de l'Europe,35300,Fougères,+33,02 99 99 66 95,direction@garage-ford-fougeres.fr
322,France,SASU GARAGE COLLU,Av de Castelnaudary,31250,REVEL,+33,05 61 83 53 53,garagecollu@hotmail.com
323,France,AUTO PASSION,1451 Avenue de Matignon,50400,GRANVILLE,+33,02 33 49 49 49,emmanuel.leblay@gap-granville.fr
324,France,AUTO PASSION,38 boulevard du Luxembourg,50300,LEVALSAINTPÈRE,+33,02 33 89 70 00,emmanuel.leblay@gap-granville.fr
325,France,ANDER-AUTOS,5 rue Panhard et Levassor,33510,ANDERNOS,+33,05 56 82 43 66,rpf.automobile@orange.fr
326,France,Agence centrale SARL,2095 Chemin Departemental 2,13400,Aubagne,+33,04 42 03 29 14,commercial.aubagne@groupe-maurin.com
327,France,Garage des Alpes SARL,Avenue Frédéric Mistral,04100,Manosque,+33,04 92 70 49 20,commercial.manosque@groupe-maurin.com
328,France,Automobiles de Provence SARL,21-22 avenue José Nobre - ZI Sud,13500,MARTIGUES,+33,04 42 81 08 63,commercial.martigues@groupe-maurin.com
329,France,Azur Brignoles SARL,RN 7 - Route de Nice,83170,BRIGNOLES,+33,04 98 05 15 40,commercial.brignoles@groupe-maurin.com
330,France,Festival Arles SARL,15 Avenue de la Libération,13200,Arles,+33,04 90 96 13 96,commercial.arles@groupe-maurin.com
331,France,Ford Delta Vehicules Industriels,ZAC de la Horsère,13870,ROGNONAS,+33,04 90 94 43 13,commercial.rognonas@groupe-maurin.com
332,France,Ford Hyeres,953 Avenue Alfred Decugis,83400,HYERES,+33,04 94 57 76 76,pbellery@citroen-rolfo.fr
333,France,Garage de la Gare,14 avenue de Bellevue,78340,LESCLAYESSOUSBOIS,+33,01 34 62 42 80,garagedelagare78@orange.fr
334,France,Marc VAN HEERENTALS,92 Bd de Lattre de Tassigny,92150,SURESNES,+33,01 45 06 33 68,fordsuresnes@wanadoo.fr
335,France,NORD EST AUTOMOBILES,16 rue Ernestine,75018,PARIS,+33,01 46 06 83 01,nordestautos@wanadoo.fr
336,France,HPCR,9 rue de Maingarbe,62113,SAILLY-LABOURSE,+33,09 61 38 46 78,garagehenripochet@orange.fr
337,France,FABRICE RICHARD,28 Route de Bourg,01340,MONTREVELENBRESSE,+33,04 74 30 81 85,garage.performance@orange.fr
338,France,STATION AUTO DESIGN,05 Route du Littoral,66700,ArgèlesSurMer,+33,04 68 87 03 58,stationautodesign@outlook.fr
339,France,SARL BOUTRY FRANCK,124 Rue de Lille,59480,LABASSEE,+33,03 20 29 01 65,fordlabassee@wanadoo.fr
340,France,GARAGE DU MOUTIER / FT GARAGE,50 avenue Leo Lagrange,63300,THIERS,+33,04 73 80 82 00,fordthiers@yahoo.fr
341,France,GARAGE MARETTE / JTC AUTO,46 avenue Pasteur,60800,CREPYENVALOIS,+33,03 44 87 04 34,marette.jtc@gmail.com
342,France,SC AUTOMOBILES,295 Route d'Eawy,76850,BEAUMONTLEHARENG,+33,02 35 33 34 59,scautomobiles@outlook.fr
343,France,GARAGE VICTOR HUGO,39 avenue Aristide Briand,93190,LIVRYGARGAN,+33,06 29 20 56 66,garagevictorhugo@gmail.com
344,France,FUCHEY AUTOMOBILES,13 Rue Maréchal Joffre,71200,LECREUSOT,+33,03 85 73 02 73,bruno.corsin@corsinautos.fr
345,France,ROMAIN BRUNEAU,5 rue E.Zola,83136,GAREOULT,+33,Not Available,garage.wrc@gmail.com
346,France,CLER AUTO SERVICE,"75, rue du Général de Gaulle",60600,CLERMONT,+33,Not Available,clerauto@wanadoo.fr
347,France,AUTOS-LIVRY,157 avenue Aristide Briand,93190,LIVRYGARGAN,+33,01 48 19 87 20,ford.livry@gmail.com
348,France,GARAGE TARLET,Z.A Le Champ Bossu,71600,PARAYLEMONIAL,+33,03 85 81 00 89,garage.tarlet@orange.fr
349,France,GARAGE RAILLOT JACKY,53b rue Narcisse Guilbert,76570,PAVILLY,+33,Not Available,j.raillot@wanadoo.fr
350,France,PARSY DOMINIQUE,74 rue du 11 Novembre,27400,LOUVIERS,+33,02 32 40 38 33,dominique.parsy@libertysurf.fr
351,France,CORRE AUTOMOBILES,14 Avenue de la Résistance - Route neuve de Perros,22300,LANNION,+33,02 96 48 30 30,f.corre@corre-automobiles.com
352,France,GARAGE DE LA PETITE RANGE,3 Rue du Port aux Vins,95220,HERBLAY,+33,01 39 97 77 02,garagedelapetiterange@orange.fr
353,France,MCF AUTO SERVICES,ZA de la Petite Vallée,60290,CAUFFRY,+33,03 44 69 63 00,mcf.auto@orange.fr
354,France,ESPACE AUTOMOBILE POLLIEN,Avenue du General de Gaulle,21320,POUILLYENAUXOIS,+33,03 80 90 73 21,espaceautomobilepollien@wanadoo.fr
355,France,BOY AUTOMOBILES,Boulevard des Pyrénées,64400,OLORONSAINTEMARIE,+33,05 59 39 02 09,alain.boy@boyautomobiles.fr
356,France,JOHANN AUTOMOBILES,1 Treytiot,33720,LANDIRAS,+33,06 64 78 73 72,johann.garage.auto@gmail.com
357,France,CARROSSERIE BRUNET,La croix du rat,24220,SaintCyprien,+33,05 53 59 27 98,carrosserie.24@gmail.com
358,France,GARAGE VASSEUR,1 Carrefour St Jean le nuisement Manthelon,27240,MESNILSSURITON,+33,02 32 30 96 72,sarl.garage.vasseur@gmail.com
359,France,GARAGE DE L'AÉRODROME,75 Rue Roger Larivière,19600,SaintPantaléondeLarche,+33,05 55 86 01 00,garage.aerodrome@wanadoo.fr
360,France,GARAGE BAYONNE,ZA DE BOURDELAS,87500,SAINTYRIEXLAPERCHE,+33,05 55 75 12 74,christophebayonne@sfr.fr
361,France,GARAGE DARIN,Route de Lyon,89200,AVALLON,+33,03 86 34 25 00,ateldarineric@gmail.com
362,France,CHAMPAIX AUTO,4 Rue Marcel Paul - ZA St Gobin,45120,CHALETTESURLOING,+33,02 38 85 16 82,champaixauto@gmail.com
363,France,GARAGE MUSSET,56 Avenue Célestin Sieur,16700,RUFFEC,+33,05 45 31 06 31,Garage.musset@wanadoo.fr
364,France,BOLLENE AUTOMOBILES,Avenue Jean Giono,84500,BOLLENE,+33,04 90 30 10 61,direction@languedocauto.fr
365,France,GARAGE DU PARC,29 quai Fernand Saguet,94700,MAISONSALFORT,+33,01 43 68 14 05,garage-du-parc3@wanadoo.fr
366,France,GARAGE BACLET,400 Route de Mouriez,62140,MARCONNELLE,+33,03 21 81 88 00,yvan.vaast@wanadoo.fr
367,France,Garage Auclair,1678 Route de Belleville,69220,TAPONAS,+33,04 74 66 18 57,garage.auclair@orange.fr
368,France,CREPIN AUTOMOBILES,66 Faubourd de Bretagne,80200,PERONNE,+33,03 22 84 75 75,direction-crepin@orange.fr
369,France,GWENAEL DANO AUTOMOBILES,8 rue des lavandières,56500,NAIZIN,+33,Not Available,gwenaeldanoautomobiles@orange.fr
370,France,GARAGE SOFEMO SENLIS,AVENUE DU POTEAU,60300,CHAMANT,+33,03 44 66 96 96,senlis.sofemo@gmail.com
371,France,GARAGE GONZALES & FILS,Route de Bagnol,30210,REMOULINS,+33,04 66 37 05 91,garage.gonzales@wanadoo.fr
372,France,GRETZ AUTO,160 avenue Gilbert Pillet,77220,GRETZARMAINVILLIERS,+33,01 64 06 47 57,comptagretzauto@gmail.com
373,France,BRIARDE AUTOMOBILE,12 rue Gué Pucelle,77130,MONTEREAU-FAULT-YONNE,+33,01 64 32 09 50,briardeautomobile@gmail.com
374,France,MB MOTORS,Rue capitaine Paul Leroy,44320,SAINTVIAUD,+33,02 28 53 05 47,mb-motors@outlook.com
375,France,GARAGE PCA,"3, rue Blaise Pascal",77720,MORMANT,+33,01 64 07 61 29,garage.pca@orange.fr
376,France,Garage de l'avenir,"ZI Quai 1, Rue Max Cousin",28210,NOGENTLEROI,+33,02 37 51 91 20,garage-de-lavenir@orange.fr
377,France,MICHEL AUTO,16 rue de la corne d'abondance,74100,VILLELAGRAND,+33,06 67 54 43 44,michelauto74@gmail.com
378,France,MONTJOLY AUTO,Rue Pierre Poisson,63400,CHAMALIERES,+33,04 73 19 25 19,montjolyauto@hotmail.fr
379,France,DCH AUTO,31 Rue Georges Clemenceau,14310,VILLERS-BOCAGE,+33,02 31 77 00 51,direction@dchauto.fr
380,France,GARAGE FRESNAY SEBASTIEN,ZA LA VARENNE,4160M,OREE,+33,02 54 82 79 45,fresnay.sebastien@orange.fr
381,France,CHAUMET AUTOMOBILES,195 rue Jules Gautier,37530,SAINTOUENLESVIGNES,+33,02 47 30 09 58,garage.lacorbinier@orange.fr
382,France,GARAGE JOEL BEAUVAL,69 Avenue de la première armée française,76220,GOURNAYENBRAY,+33,02 35 09 98 40,joel.beauval@gmail.com
383,France,FF MECA,3 rue du port aux vins,95220,HERBLAYSURSEINE,+33,01 39 97 77 02,fodkeit@yahoo.fr
384,France,RC MECA,13 rue Réné Cassin,74240,GAILLARD,+33,04 50 43 51 15,rcmeca.christophe@gmail.com
385,France,MB AUTO,51 Rue de Bourgogne,77480,Bray-sur-Seine,+33,01 60 67 12 97,mbauto.fordbray@free.fr
386,France,SARL AKS,230 Allée de Montfermeil,93220,GAGNY,+33,01 43 51 16 23,agentgagny@gmail.com
387,France,GARAGE ANGELINI,47 avenue du président Herriot,33220,PINEUILH,+33,05 57 46 07 30,angeliniautomobiles@orange.fr
388,France,GARAGE DUFOUR ALAIN,Chaussée Brunehaut,62144,MONTSAINTELOI,+33,03 21 48 67 21,garage-dufour-freres@orange.fr
389,France,DEL AUTO,10 rue des Cressonnières,95500,GONESSE,+33,01 75 94 11 30,delauto95@gmail.com
390,France,SODIAM SAS,250 rue de Rennes,53100,MAYENNE,+33,02 43 04 36 71,sodiam1-yvesleon@wanadoo.fr
391,France,Moissac autos,141 chemin de la chaumière,82100,CASTELSARRASIN,+33,05 63 95 07 57,ascm.direction@orange.fr
392,France,GARAGE CHERON,93 rue de Courville,28120,ILLIERSCOMBRAY,+33,02 37 24 11 08,garage.cheron@gmail.com
393,France,SARL GARAGE BLANCHET,ZI route de Mamers,72400,LAFERTEBERNARD,+33,02 43 93 05 29,garage.blanchet@wanadoo.fr
394,France,EURL BRUNEAUX,86 avenue de la chapelle,28310,TOURY,+33,02 37 90 50 35,eurl.bruneaux@wanadoo.fr
395,France,DELOUCHE AUTOMOBILES,50 Rue Jules Louis Breton,18100,VIERZON,+33,02 48 52 99 99,hatron.stephane@yahoo.fr
396,France,GARAGE DES 2 LACS,108 RUE DE MONTEVI,49280,LATESSOUALLE,+33,02 41 63 12 69,legaragedes2lacs@gmail.com
397,France,HOUPLON AUTOMOBILES,7 rue du 3ème régiment de cuirassiers,54300,MONCELLELESLUNEVILLE,+33,03 83 74 20 40,frederic.garagehouplon@orange.fr
398,France,EURAUTOMOBILES,2 chemin d'aviron,27180,PARVILLE,+33,02 32 33 48 52,eurautomobiles-parville@outlook.fr
399,France,GARAGE GUILLOT,"ZA de la Sedis, Route de Clermont",63160,BILLOM,+33,04 73 68 40 11,guillot.ford@wanadoo.fr
400,France,SARL BLAISE PERE ET FILS,"5 rue de la voie de la liberté, Essars",28700,Bleury-Saint-Symphorien,+33,02 37 31 06 94,garageblaise@live.fr
401,France,SARL LORAUTO,"CC du Loreau, Route de Gallardon",28130,HANCHES,+33,02 37 83 75 66,acc.compta@orange.fr
402,France,GARAGE DU MOULIN,2 rue des carriers italiens,91350,GRIGNY,+33,01 69 06 73 43,contact@garagedumoulinford.fr
403,France,SARL ELIE,205-207 route du tréport,76260,EU,+33,02 35 86 30 13,arnaud.elie50@orange.fr
404,France,ANTON AUTOMOBILES,RN7,38150,CHANAS,+33,04 74 84 21 91,brunoanton@orange.fr
405,France,GARAGE DE LA POSTE,2865 route de Ravel ZI les Platières,69440,SAINTLAURENTD'AGNY,+33,04 82 31 44 69,garagefordmornant@gmail.com
406,France,GERARDI AUTOMOBILES,"zac Brunon Valette, 20 Av. Charles de Gaulle",42800,RIVEDEGIER,+33,04 77 75 33 30,rivedegier@magris.net
407,France,ROUSSILLON AUTOMOBILES,RN7 Plateau de Louze,38150,ROUSSILLON,+33,04 74 86 33 33,roussillonauto@yahoo.fr
408,France,ETS PITOT MARC,Le Rozier - échangeur nord 175,15100,SAINT-FLOUR,+33,04 71 60 04 29,pitotgarage@gmail.com
409,France,FORD MAGRIS VIENNE,5 avenue Marcellin Berthelot,38200,VIENNE,+33,04 74 78 22 11,magriscamper@gmail.com
410,France,GARAGE PASCAL,2 avenue de Londres,83500,LASEYNESURMER,+33,04 94 10 20 20,garage.pascal@free.fr
411,France,MODERN' GARAGE,RD562 Le Plan Oriental,83440,MONTAUROUX,+33,04 94 76 43 02,moderngarage.montauroux@wanadoo.fr
412,France,GERBELOT AUTOS,280 Route de la Chapelle,73330,DOMESSIN,+33,04 76 37 25 40,autogerbelot@wanadoo.fr
413,France,SARL MATHIEU CORRUBLE,15 Rue du président René Coty,76400,FECAMP,+33,02 35 10 35 70,mathieu.corruble@gmail.com
414,France,GARAGE AM,26 rue d'après Mannevillette,76600,LEHAVRE,+33,02 35 41 30 15,garage.mannevillette@gmail.com
415,France,CARROSSERIE AUBIN,22 Avenue du Maréchéal de Lattre de Tassigny,76430,SAINT-ROMAIN-DE-COLBOSC,+33,02 35 20 51 34,xavier.jules@groupeaubin.com
416,France,AUTO SAINTE FOY,113 rue du Commandant Charcot,69110,SAINTE-FOY-LES-LYON,+33,04 51 14 19 57,autosaintefoy@gmail.com
417,France,CHRISTOPHE AUTO,100 Impasse des Ifs,38300,RUYMONTCEAU,+33,04 74 28 50 88,christopheauto@gmail.com
418,France,CLIK AUTO,1 Allée des 3 joncs,69330,JONS,+33,04 72 02 44 42,cilkauto@outlook.fr
419,France,GARAGE SANCHEZ THIERRY,44 avenue de Gascogne,82500,BEAUMONTDELOMAGNE,+33,05 63 02 24 62,thierry.sanchez044@orange.fr
420,France,SARL GARAGE AUDIBERT,54 Avenue de Provence,05300,LARAGNE-MONTEGLIN,+33,04 92 65 09 71,audibert.auto@wanadoo.fr
421,France,SARL GARAGE CIVERA,Route de Vaison,26110,MIRABELAUXBARONNIES,+33,04 75 27 12 59,garage.civera@orange.fr
422,France,SARL ALBERT AUTO,Quartier de la Tour,04000,DIGNESLESBAINS,+33,04 92 36 39 54,albertmontalbano@orange.fr
423,France,MARANS AUTOMOBILES,104 rue d'aligre,17230,MARANS,+33,05 46 01 12 73,maransauto@pda-lr.fr
424,France,TERRAL AUTO SARL,33 Avenue des Tourondes,82300,CAUSSADE,+33,05 63 65 09 96,ford.caussade@orange.fr
425,France,SAS FONT DE LAURENT,32 route DP20,13880,VELAUX,+33,04 42 07 10 92,sasfontdelaurent@outlook.com
426,France,SA BADARELLO,16 avenue des Allobroges,26100,ROMANSSURISERE,+33,04 75 70 03 60,sophie@badarello.fr
427,France,PAROT FORD SAINT JUNIEN,1 impasse Henri Becquerel,87200,SAINT-JUNIEN,+33,05 55 02 37 37,s.darbo@groupe-parot.com
428,France,SARL GARAGE DAMIEN,68 impasse des Geais,16560,ANAIS,+33,05 45 69 84 82,dt16@orange.fr
429,France,AD AUTO CYCLO DRIVER,186 rue de Paris,60130,SAINTJUSTENCHAUSSEE,+33,03 44 19 09 42,adautocyclodriver@gmail.com
430,France,GARAGE JP AUTO,ZI de Pré Muny,01630,PERON,+33,04 50 48 52 69,garagejpauto@wanadoo.fr
431,France,SAS GARAGE JOURNEAU,59 rue des Près,71140,SAINTPIERRELESNEMOURS,+33,01 64 28 00 34,direction@garagejourneau.fr
432,France,RSL AUTOMOBILES,60 route de Rambouillet,78610,SAINT-LEGER-EN-YVELINES,+33,01 34 86 36 17,rslautomobiles@wanadoo.fr
433,France,GARAGE ORGET,16 rue du marais,60600,BREUILLEVERT,+33,09 80 45 98 08,garage.orget@hotmail.com
434,France,GARAGE SERGE BLANCK,20 avenue des croates,12200,VILLEFRANCHESURROUERGUE,+33,05 65 45 03 35,serge.blanck@wanadoo.fr
435,France,PHIL AUTO,9 Grande rue,73140,SAINTMICHELDEMAURIENNE,+33,04 79 56 53 80,phil-auto73@orange.fr
436,France,NAFI AUTO,3 rue du buisson aux fraises,91300,MASSY,+33,01 60 13 02 22,m.nardon@nafiauto.fr
437,France,GRAND GARAGE DU PANORAMA,La Pichotiere - route de Paris,61300,SAINTSULPICESURRISLE,+33,02 33 34 89 17,kevin.maignan@groupeprocureur.fr
438,France,SARL PROGEDA MORTAGNE,Zone commerciale de Préfontaine,61400,MORTAGNEAUPERCHE,+33,02 33 25 37 45,edouard.wilkinson@groupeprocureur.fr
439,France,GARAGE SOUCHET,PA la Vigogne,62600,BERCK,+33,03 21 09 09 80,garage-souchet@wanadoo.fr
440,France,AUTOMOBILES ANDREU,111 avenue de la marne,33700,MERIGNAC,+33,05 56 24 56 25,automobiles.andreu@orange.fr
441,France,GARAGE FALCOZ MAISON,49 rue René Cassin,74150,RUMILLY,+33,04 50 01 20 68,garage@falcoz-maison.fr
442,France,BOUVARD AUTOMOBILES,169 rue combattants d'Afrique du nord,74800,LAROCHESURFORON,+33,04 50 03 35 42,bouvard.auto@neuf.fr
443,France,YP AUTOMOBILES,30 RUE AUX MOINES,10000,TROYES,+33,03 25 81 17 97,gge.bruhammer@wanadoo.fr
444,France,SERVICES AUTO LAVAUR,Petite rue de la république,81500,LAVAUR,+33,Not Available,ford.lavaur@gmail.com
445,France,GARAGE MOINET,39 rue du Général De Gaulle,29400,LANDIVISIAU,+33,02 98 68 01 21,garagemoinet@gmail.com
446,France,Garage JAMROZ,38 rue de Peronne,62450,BAPAUME,+33,03 21 07 81 32,jp.jamroz@orange.fr
447,France,Garage de la Villeneuve,22 Avenue du Général de Gaulle,56700,BRANDERION,+33,02 97 32 94 84,garagedelavilleneuve@gmail.com
448,France,JAI AUTOMOBILES,"Zone commerciale l’hacienda, Route du Jai,",13220,Châteauneuf-les-Martigues,+33,04 42 46 35 45,jai.autos13220@gmail.com
449,France,GTG PERFORMANCES,Lieu dit GORNOEC,56770,PLOURAY,+33,06 42 81 43 39,gtgperformances@gmail.com
450,France,JUST'1 GARAGE,4 Rue d'Asteriac,50170,Beauvoir,+33,09 81 12 80 66,just1garage@gmail.com
451,France,ALB AUTO,9 rue Pierre Martin,29200,BREST,+33,02 98 02 22 13,albauto@orange.fr
452,France,GARAGE ROUDAUT,ZA de Croas an Drep,29870,LANNILIS,+33,02 98 04 16 04,garageroudaut@wanadoo.fr
453,France,MECANIQUE BARDOUIL,1 rue Hélène Boucher,29300,QUIMPERLE,+33,02 98 09 47 71,m-bardouil-sylvain@orange.fr
454,France,GARAGE PUSTOCH,16 RUE DU BEL AIR,29310,QUERRIEN,+33,06 64 05 02 10,garage.pustoch@gmail.com
455,France,GARAGE AUTO LIBIER,ZA PORTUA,64310,SARE,+33,05 59 54 42 13,autolibier@gmail.com
456,France,AMBIANCE AUTOMOBILES,Route de Domfront,61100,FLERS,+33,02 33 62 33 62,j.heuze@ambianceautomobiles.fr
457,France,LE FAOUET AUTOMOBILES,20 rue de Lorient,56320,LEFAOUET,+33,02 97 23 09 66,lefaouetautomobiles@gmail.com
458,France,GARAGE DE LA BAIE,49 rue Pierre Brossolette,29770,PLOGOFF,+33,02 98 70 66 30,garagedelabaie@orange.fr
459,France,LH AUTO 29,59 rue Charles LE GOFFIC,29000,QUIMPER,+33,Not Available,autoconfiance29@gmail.com
460,France,ROCLINCOURT AUTOMOBILE,14 rue d'écurie,62223,ROCLINCOURT,+33,03 21 24 02 03,roclincourtautomobile@gmail.com
461,France,LE SITE AUTO,14 chemin de la Chatterie,44800,SAINT-HERBLAIN,+33,02 72 20 71 06,lesiteauto@yahoo.com
462,France,FG AUTOS UTILITAIRES,12 Rue des maraîchers,44220,COUERON,+33,02 40 46 95 75,fgautosutilitaires@orange.fr
463,France,ACTIV'AUTO,92 Avenue Eugène Varlin,77270,VILLEPARISIS,+33,01 64 27 55 11,activauto77270@gmail.com
464,France,GARAGE DES GRANDS PRES,Avenue de la liberté,14160,DIVESSURMER,+33,02 31 24 17 19,garagedesgrandspres.dives@orange.fr
465,France,GARAGE C&C AUTOS,400 chemin des morilles,74100,ETREMBIERES,+33,04 50 95 71 59,ccautos74@gmail.com
466,France,GARAGE FERTUN,2 avenue Maréchal Foch,76390,AUMALE,+33,02 35 93 41 21,garare-fertun@orange.fr
467,France,FRANCE AUTOMOBILE PIECES,14 Rue du Général Leclerc,67250,LAMPERTSLOCH,+33,Not Available,contact@france-automobile-pieces.fr
