ID Company,Country,Outlet Name,Street,Postal_Code,City,International_Preselect,Phone,Email
1,Sweden,Ryds Bilglas Alingsås,Verkstadsgatan 1,44157,Alingsås,+46,0771-411411,alingsas@rydsbilglas.se
2,Sweden,Ryds Bilglas Bollnäs,Industrigatan 7,82141,Bollnäs,+46,0771-411411,bollnas@rydsbilglas.se
3,Sweden,Ryds Bilglas  Södra Backa,Lustbergsvägen 5,78187,Borlänge,+46,0771-411411,borlange@rydsbilglas.se
4,Sweden,Ryds Bilglas  Åselby,Cirkelgatan 8,78182,Borlänge,+46,0771-411411,borlange.aselby@rydsbilglas.se
5,Sweden,Ryds Bilglas  Bergsäter,Humlegatan 15,50451,Borås,+46,0771-411411,boras.bergsater@rydsbilglas.se
6,Sweden,Ryds Bilglas  Knalleland,Vegagatan 1,50635,Borås,+46,0771-411411,boras.knalleland@rydsbilglas.se
7,Sweden,Ryds Bilglas Bålsta,Dragrännan 2B,74650,Bålsta,+46,0771-411411,balsta@rydsbilglas.se
8,Sweden,Ryds Bilglas Eksjö,Mattläggargatan 4,57539,Eksjö,+46,0381-14740,eksjo@rydsbilglas.se
9,Sweden,Ryds Bilglas  Torggatan,Torggatan 15,74935,Enköping,+46,0771-411411,enkoping.torggatan@rydsbilglas.se
10,Sweden,Ryds Bilglas  Vårfrugatan,Vårfrugatan 2,74534,Enköping,+46,0771-411411,enkoping@rydsbilglas.se
11,Sweden,Ryds Bilglas Eskilstuna,Mått Johanssons väg 26,63346,Eskilstuna,+46,0771-411411,eskilstuna@rydsbilglas.se
12,Sweden,Ryds Bilglas Eslöv,Vindelvägen 1b,24138,Eslöv,+46,0771-411411,eslov@rydsbilglas.se
13,Sweden,Ryds Bilglas Fagersta,Kristiansbergsvägen 1,73730,Fagersta,+46,0223-15835,fagersta@rydsbilglas.se
14,Sweden,Ryds Bilglas Falkenberg,Kanslistvägen 4,31139,Falkenberg,+46,0771-411411,falkenberg@rydsbilglas.se
15,Sweden,Ryds Bilglas Falköping,Verkstadsgatan 8,52141,Falköping,+46,0771-411411,falkoping@rydsbilglas.se
16,Sweden,Ryds Bilglas  Ingarvet,Matsarvsvägen 8,79177,Falun,+46,0771-411411,falun.ingarvet@rydsbilglas.se
17,Sweden,Ryds Bilglas  Regementet,Plutonsvägen 1,79140,Falun,+46,0771-411411,falun.regementet@rydsbilglas.se
18,Sweden,Ryds Bilglas Gällivare,Borrvägen 5,98238,Gällivare,+46,0771411411,gallivare@rydsbilglas.se
19,Sweden,Ryds Bilglas  Brynäs,Södra Skeppsbron 19,80284,Gävle,+46,0771-411411,gavle@rydsbilglas.se
20,Sweden,Ryds Bilglas  Hemlingby,Ingenjörsgatan 20,80293,Gävle,+46,0771-411411,gavle.hemlingby@rydsbilglas.se
21,Sweden,Ryds Bilglas  Bäckebol,Transportgatan 4,42246,Göteborg,+46,0771-411411,gbg.backebol@rydsbilglas.se
22,Sweden,Ryds Bilglas  Högsbo,Victor Hasselblads gata 2,42131,Göteborg,+46,0771-411411,gbg.hogsbo@rydsbilglas.se
23,Sweden,Ryds Bilglas  Landvetter,Ullbergsvägen 2,43834,Göteborg,+46,0771-411411,landvetter@rydsbilglas.se
24,Sweden,Ryds Bilglas  Mölndal,Södra Ågatan 8,43135,Göteborg,+46,0771-411411,gbg.molndal@rydsbilglas.se
25,Sweden,Ryds Bilglas  Partille,Järnringen 50,43330,Göteborg,+46,0771-411411,gbg.partille@rydsbilglas.se
26,Sweden,Ryds Bilglas  Sisjön,Datavägen 43C,43632,Göteborg,+46,0771-411411,gbg.sisjon@rydsbilglas.se
27,Sweden,Ryds Bilglas  Stigscenter,Exportgatan 81A,42246,Göteborg,+46,031-581555,gbg.stigscenter@rydsbilglas.se
28,Sweden,Ryds Bilglas  Tuvevägen,Tuvevägen 37,41705,Göteborg,+46,0771-411411,gbg.tuvevagen@rydsbilglas.se
29,Sweden,Ryds Bilglas  Vädermotet,Ruskvädersgatan 13,41834,Göteborg,+46,0771-411411,gbg.vadermotet@rydsbilglas.se
30,Sweden,Ryds Bilglas  Flygstaden,Svartalundsvägen 3,30235,Halmstad,+46,0771-411411,halmstad.flygstaden@rydsbilglas.se
31,Sweden,Ryds Bilglas  Öst,Gesällgatan 5,30255,Halmstad,+46,0771-411411,halmstad.ost@rydsbilglas.se
32,Sweden,Ryds Bilglas  Albyberg,Albybergsringen 99,13769,Haninge,+46,0771-411411,albyberg@rydsbilglas.se
33,Sweden,Ryds Bilglas  Hantverkarvägen,Hantverkarvägen 23 C,13644,Haninge,+46,0771-411411,hantverkarvagen@rydsbilglas.se
34,Sweden,Ryds Bilglas  Vendelsövägen,Vendelsövägen 51,13644,Haninge,+46,0771-411411,haninge@rydsbilglas.se
35,Sweden,Ryds Bilglas  Norr,Garnisonsgatan 16,25466,Helsingborg,+46,0771-411411,helsingborg.norr@rydsbilglas.se
36,Sweden,Ryds Bilglas  Söder,Industrigatan 97,25232,Helsingborg,+46,0771-411411,helsingborg.soder@rydsbilglas.se
37,Sweden,Ryds Bilglas Hudiksvall,Kullbäcksvägen 8,82431,Hudiksvall,+46,0771-411411,hudiksvall@rydsbilglas.se
38,Sweden,Ryds Bilglas Härnösand,Löpargatan 1,87151,Härnösand,+46,0771-411411,harnosand@rydsbilglas.se
39,Sweden,Ryds Bilglas Hässleholm,Helsingsborgsvägen 8,28149,Hässleholm,+46,0771-411411,hassleholm@rydsbilglas.se
40,Sweden,Ryds Bilglas  Ekhagen,Hästhovsvägen 6,55454,Jönköping,+46,0771-411411,jonkoping.ekhagen@rydsbilglas.se
41,Sweden,Ryds Bilglas  Ljungarum,Barnhemsgatan 14,55302,Jönköping,+46,0771-411411,jonkoping.ljungarum@rydsbilglas.se
42,Sweden,Ryds Bilglas Kalmar,Polhemsgatan 20,39239,Kalmar,+46,0771-411411,kalmar@rydsbilglas.se
43,Sweden,Ryds Bilglas Karlshamn,Sölvesborgsvägen 29,37441,Karlshamn,+46,0454-31762,karlshamn@rydsbilglas.se
44,Sweden,Ryds Bilglas Karlskoga,Häsängsvägen 4,69142,Karlskoga,+46,0771-411411,karlskoga@rydsbilglas.se
45,Sweden,Ryds Bilglas Karlskrona,Ronnebyvägen 5,37145,Karlskrona,+46,0771-411411,karlskrona@rydsbilglas.se
46,Sweden,Ryds Bilglas  Hammarö,Bivägen 8,66341,Karlstad,+46,0771-411411,karlstad.hammaro@rydsbilglas.se
47,Sweden,Ryds Bilglas  Våxnäs,Blockgatan 19,65341,Karlstad,+46,0771-411411,karlstad@rydsbilglas.se
48,Sweden,Ryds Bilglas Katrineholm,Oppundavägen 62,64137,Katrineholm,+46,0771-411411,katrineholm@rydsbilglas.se
49,Sweden,Ryds Bilglas Kinna,Skattegårdsgatan 10,51156,Kinna,+46,0771411411,kinna@rydsbilglas.se
50,Sweden,Ryds Bilglas Kiruna,Industrivägen 32,98138,Kiruna,+46,0771411411,kiruna@rydsbilglas.se
51,Sweden,Ryds Bilglas Kristianstad,Fäladsgatan 1,29159,Kristianstad,+46,0771-411411,kristianstad.vilan@rydsbilglas.se
52,Sweden,Ryds Bilglas Kungsbacka,Kabelgatan 2,43437,Kungsbacka,+46,0771-411411,kungsbacka@rydsbilglas.se
53,Sweden,Ryds Bilglas Kungälv,Teknikergatan 6,44234,Kungälv,+46,0771-411411,kungalv@rydsbilglas.se
54,Sweden,Ryds Bilglas Köping,Järnvägsgatan 4,73130,Köping,+46,0771-411411,koping@rydsbilglas.se
55,Sweden,Ryds Bilglas Landskrona,Östervångsplan 16,26144,Landskrona,+46,0771-411411,landskrona@rydsbilglas.se
56,Sweden,Ryds Bilglas Lidköping,Kinnegatan 19,53133,Lidköping,+46,0510-24000,lidkoping@rydsbilglas.se
57,Sweden,Ryds Bilglas  Mjärdevi,Algolgatan 10,58335,Linköping,+46,0771-411411,linkoping.mjardevi@rydsbilglas.se
58,Sweden,Ryds Bilglas  Tannefors,"Gamla Tanneforsvägen 17C,",58254,Linköping,+46,0771-411411,linkoping.tannefors@rydsbilglas.se
59,Sweden,Ryds Bilglas  Tornby,Roxviksgatan 10,58273,Linköping,+46,0771-411411,linkoping.tornby@rydsbilglas.se
60,Sweden,Ryds Bilglas  Spantgatan,Spantgatan 6,97346,Luleå,+46,0771-411411,lulea.spantgatan@rydsbilglas.se
61,Sweden,Ryds Bilglas  Storheden,Betongvägen 16,97345,Luleå,+46,0771-411411,lulea.storheden@rydsbilglas.se
62,Sweden,Ryds Bilglas  Gastelyckan,Skiffervägen 19,22478,Lund,+46,0771-411411,lund.gastelyckan@rydsbilglas.se
63,Sweden,Ryds Bilglas  Gunnesbo,Odlarevägen 3,22660,Lund,+46,0771-411411,lund.gunnesbo@rydsbilglas.se
64,Sweden,Ryds Bilglas  Arlöv,Strömgatan 7,21225,Malmö,+46,0771-411411,arlov@rydsbilglas.se
65,Sweden,Ryds Bilglas  Fosie,Kantyxegatan 25F,21376,Malmö,+46,0771-411411,malmo.fosie@rydsbilglas.se
66,Sweden,Ryds Bilglas  Heleneholm,Ystadvägen 17,21430,Malmö,+46,0771-411411,malmo.heleneholm@rydsbilglas.se
67,Sweden,Ryds Bilglas  Limhamn,Limhamnsgårdens Allé 23B,21616,Malmö,+46,0771-411411,malmo.limhamn@rydsbilglas.se
68,Sweden,Ryds Bilglas  Toftanäs,Topplocksgatan 15,21241,Malmö,+46,0771-411411,malmo.toftanas@rydsbilglas.se
69,Sweden,Ryds Bilglas  Värnhem,Zenithgatan 5,21214,Malmö,+46,0771-411411,malmo.varnhem@rydsbilglas.se
70,Sweden,Ryds Bilglas Mariestad,Storegårdsvägen 64,54235,Mariestad,+46,0771-411411,mariestad@rydsbilglas.se
71,Sweden,Ryds Bilglas Mora,Hindrikesvägen 12,79275,Mora,+46,0771-411411,mora@rydsbilglas.se
72,Sweden,Ryds Bilglas Motala,Mineralvägen 20,59153,Motala,+46,0771-411411,motala@rydsbilglas.se
73,Sweden,Ryds Bilglas  Butängen,Linnégatan 17,60223,Norrköping,+46,0771-411411,norrkoping.butangen@rydsbilglas.se
74,Sweden,Ryds Bilglas  Risängen,Importgatan 18B,60228,Norrköping,+46,0771-411411,norrkoping.risangen@rydsbilglas.se
75,Sweden,Ryds Bilglas Norrtälje,Görlavägen 11B,76141,Norrtälje,+46,0771-411411,norrtalje@rydsbilglas.se
76,Sweden,Ryds Bilglas Nyköping,Brukslagarvägen 9,61131,Nyköping,+46,0155-219800,nykoping@rydsbilglas.se
77,Sweden,Ryds Bilglas Nynäshamn,Sandtorpsvägen 10,14945,Nynäshamn,+46,0771411411,nynashamn@rydsbilglas.se
78,Sweden,Ryds Bilglas Nässjö,Bockänggatan 10 B,57138,Nässjö,+46,0771-411411,nassjo@rydsbilglas.se
79,Sweden,Ryds Bilglas Olofstorp,Gråbovägen 1031,42471,Olofstorp,+46,031-7020697,olofstorp@rydsbilglas.se
80,Sweden,Ryds Bilglas Oskarshamn,Södra Fabriksgatan 25,57236,Oskarshamn,+46,0771411411,oskarshamn@rydsbilglas.se
81,Sweden,Ryds Bilglas Piteå,Relägatan 4,94147,Piteå,+46,0771-411411,pitea@rydsbilglas.se
82,Sweden,Ryds Bilglas Ronneby,Viggenvägen 14,37291,Ronneby,+46,0457-10179,ronneby@rydsbilglas.se
83,Sweden,Ryds Bilglas Sala,Väsbygatan 10,73339,Sala,+46,0771-411411,sala@rydsbilglas.se
84,Sweden,Ryds Bilglas Sandviken,Verkstadsgatan 3,81140,Sandviken,+46,0771-411411,sandviken@rydsbilglas.se
85,Sweden,Ryds Bilglas Skellefteå,Tjärnvägen 36,93161,Skellefteå,+46,0771-411411,skelleftea@rydsbilglas.se
86,Sweden,Ryds Bilglas Skövde,Gesällgatan 1,54150,Skövde,+46,0771-411411,skovde@rydsbilglas.se
87,Sweden,Ryds Bilglas Sollefteå,Gudlav Bildersgatan 8,88131,Sollefteå,+46,0620-12065,solleftea@rydsbilglas.se
88,Sweden,Ryds Bilglas Stenungsund,Stenunge väg 22 C,44431,Stenungsund,+46,0771-411411,stenungsund@rydsbilglas.se
89,Sweden,Ryds Bilglas  Arlandastad,Voltgatan 3,19560,Stockholm,+46,0771-411411,arlandastad@rydsbilglas.se
90,Sweden,Ryds Bilglas  Bromma,Registervägen 38,16831,Stockholm,+46,0771-411411,bromma@rydsbilglas.se
91,Sweden,Ryds Bilglas  Danderyd-Rinkebyvägen,Rinkebyvägen 11,18236,Stockholm,+46,0771-411411,danderyd.rinkebyvagen@rydsbilglas.se
92,Sweden,Ryds Bilglas  Hammarby,Olaus Magnus väg 22,12140,Stockholm,+46,0771-411411,hammarby@rydsbilglas.se
93,Sweden,Ryds Bilglas  Huddinge,Bäckdalsvägen 1,14137,Stockholm,+46,0771-411411,huddinge@rydsbilglas.se
94,Sweden,Ryds Bilglas  Jakobsberg,Järfällavägen 100,17741,Stockholm,+46,0771-411411,jakobsberg@rydsbilglas.se
95,Sweden,Ryds Bilglas  Kista,Torshamnsgatan 32D,16440,Stockholm,+46,0771-411411,kista@rydsbilglas.se
96,Sweden,Ryds Bilglas  Kungsholmen,Fridhemsgatan 38,11240,Stockholm,+46,0771411411,kungsholmen@rydsbilglas.se
97,Sweden,Ryds Bilglas  Lidingö,Båtsmansvägen 16,18141,Stockholm,+46,0771-411411,lidingo@rydsbilglas.se
98,Sweden,Ryds Bilglas  Länna,Fräsarvägen 24,14250,Stockholm,+46,0771-411411,lanna@rydsbilglas.se
99,Sweden,Ryds Bilglas  Nacka,Alphyddevägen 1,13135,Stockholm,+46,0771-411411,nacka@rydsbilglas.se
100,Sweden,Ryds Bilglas  Norrviken,Skolvägen 10,19270,Stockholm,+46,0771-411411,norrviken@rydsbilglas.se
101,Sweden,Ryds Bilglas  Smista,Smista allé 15D,14174,Stockholm,+46,0771-411411,smista@rydsbilglas.se
102,Sweden,Ryds Bilglas  Solna Mall of Scandinavia,"Stjärntorget 2, Mall of Scandinavia plan minus två (-2).",16979,Stockholm,+46,0771-411411,Solna.MOS@rydsbilglas.se
103,Sweden,Ryds Bilglas  Spånga/Lunda,Avestagatan 61B,16353,Stockholm,+46,0771-411411,spanga@rydsbilglas.se
104,Sweden,Ryds Bilglas  Södermalm,Krukmakargatan 5,11851,Stockholm,+46,0771-411411,sodermalm@rydsbilglas.se
105,Sweden,Ryds Bilglas  Täby,Enhagsvägen 2,18740,Stockholm,+46,0771-411411,taby@rydsbilglas.se
106,Sweden,Ryds Bilglas  Upplands Väsby,Truckvägen 14,19452,Stockholm,+46,0771-411411,upplandsvasby@rydsbilglas.se
107,Sweden,Ryds Bilglas  Valhallavägen,Valhallavägen 151,11531,Stockholm,+46,0771-411411,valhallavagen@rydsbilglas.se
108,Sweden,Ryds Bilglas  Vallentuna,Fågelsångsvägen 6,18642,Stockholm,+46,0771-411411,vallentuna@rydsbilglas.se
109,Sweden,Ryds Bilglas  Vanadisvägen,Vanadisvägen 6,11346,Stockholm,+46,0771-411411,vanadis@rydsbilglas.se
110,Sweden,Ryds Bilglas  Värmdö,Leveransvägen 7,13439,Stockholm,+46,0771-411411,varmdo@rydsbilglas.se
111,Sweden,Ryds Bilglas  Västberga,Västberga allé 4,12630,Stockholm,+46,0771-411411,vastberga@rydsbilglas.se
112,Sweden,Ryds Bilglas  Åkersberga,Rallarvägen 39,18440,Stockholm,+46,0771-411411,akersberga@rydsbilglas.se
113,Sweden,Ryds Bilglas Strängnäs,Mästarvägen 5B,64541,Strängnäs,+46,0152-10161,strangnas@rydsbilglas.se
114,Sweden,Ryds Bilglas Strömstad,Solrosgatan 2,45233,Strömstad,+46,0526-14900,stromstad@rydsbilglas.se
115,Sweden,Ryds Bilglas  Birsta,Södra Förmansvägen 5B,86341,Sundsvall,+46,0771-411411,sundsvall.birsta@rydsbilglas.se
116,Sweden,Ryds Bilglas  Nacksta,Axvägen 16,85350,Sundsvall,+46,0771-411411,sundsvall.nacksta@rydsbilglas.se
117,Sweden,Ryds Bilglas  Njurunda,Ängomsvägen 9,86241,Sundsvall,+46,0771-411411,njurunda@rydsbilglas.se
118,Sweden,Ryds Bilglas  Skönsberg,Skönsbergsvägen 63,85631,Sundsvall,+46,0771-411411,bilglas.skonsberg@rydsbilglas.se
119,Sweden,Ryds Bilglas Söderhamn,Växelgatan 13A,82640,Söderhamn,+46,0771-411411,soderhamn@rydsbilglas.se
120,Sweden,Ryds Bilglas  Syd,Strömsgårdsvägen 4,15138,Södertälje,+46,0771-411411,sodertalje.syd@rydsbilglas.se
121,Sweden,Ryds Bilglas  Weda/Moraberg,Morabergsvägen 2B,15242,Södertälje,+46,0771-411411,sodertalje.weda@rydsbilglas.se
122,Sweden,Ryds Bilglas Trelleborg,Hedvägen 208,23166,Trelleborg,+46,0771-411411,trelleborg@rydsbilglas.se
123,Sweden,Ryds Bilglas Trollhättan,Kardanvägen 32,46138,Trollhättan,+46,0771-411411,trollhattan@rydsbilglas.se
124,Sweden,Ryds Bilglas Tumba,Bergfotsvägen 17,14733,Tumba,+46,0771-411411,tumba@rydsbilglas.se
125,Sweden,Ryds Bilglas Tyresö,Vintervägen 28,13540,Tyresö,+46,0771-411411,tyreso@rydsbilglas.se
126,Sweden,Ryds Bilglas Uddevalla,Brunegårdsvägen 2B,45176,Uddevalla,+46,0771-411411,uddevalla@rydsbilglas.se
127,Sweden,Ryds Bilglas Ulricehamn,Boråsvägen 17,52337,Ulricehamn,+46,0771-411411,ulricehamn@rydsbilglas.se
128,Sweden,Ryds Bilglas  Ersboda,Formvägen 8,90621,Umeå,+46,0771-411411,umea.ersboda@rydsbilglas.se
129,Sweden,Ryds Bilglas  Öst Teg,Maskingatan 1,90422,Umeå,+46,0771-411411,umea.parkvagen@rydsbilglas.se
130,Sweden,Ryds Bilglas  Boländerna,Stångjärnsgatan 8,75323,Uppsala,+46,0771-411411,uppsala.bolanderna@rydsbilglas.se
131,Sweden,Ryds Bilglas  Fyrislund,Sylveniusgatan 3,75450,Uppsala,+46,0771-411411,uppsala.fyrislund@rydsbilglas.se
132,Sweden,Ryds Bilglas  Gnista,Grafikgatan 30,75454,Uppsala,+46,0771-411411,uppsala.gnista@rydsbilglas.se
133,Sweden,Ryds Bilglas  Gnista Åkaregatan,Åkaregatan 5,75454,Uppsala,+46,0771-411411,gnista.akaregatan@rydsbilglas.se
134,Sweden,Ryds Bilglas  Kungsängen,Kungsängsesplanaden 7,75318,Uppsala,+46,0771-411411,uppsala.kungsangen@rydsbilglas.se
135,Sweden,Ryds Bilglas Varberg,Värnamovägen 2B,43232,Varberg,+46,0771-411411,varberg@rydsbilglas.se
136,Sweden,Ryds Bilglas Vetlanda,Lassarettsgatan 25,57440,Vetlanda,+46,0771-411411,vetlanda@rydsbilglas.se
137,Sweden,Ryds Bilglas Vårgårda,Maskingatan 1,44732,Vårgårda,+46,0771-411411,vargarda@rydsbilglas.se
138,Sweden,Ryds Bilglas Vänersborg,Regementgatan 34 A,46232,Vänersborg,+46,0521-10797,vanersborg@rydsbilglas.se
139,Sweden,Ryds Bilglas Värnamo,Ringvägen 59 C,33132,Värnamo,+46,0771411411,varnamo@rydsbilglas.se
140,Sweden,Ryds Bilglas Västervik,Kolonivägen 15B,59362,Västervik,+46,0771-411411,vastervik@rydsbilglas.se
141,Sweden,Ryds Bilglas  Bäckby,Stångjärnsgatan 1A,72477,Västerås,+46,0771-411411,vasteras.backby@rydsbilglas.se
142,Sweden,Ryds Bilglas  Erikslund,Traversgatan 23,72138,Västerås,+46,0771-411411,vasteras.erikslund@rydsbilglas.se
143,Sweden,Ryds Bilglas  Hälla,Fältmätargatan 20,72135,Västerås,+46,0771-411411,vasteras.halla@rydsbilglas.se
144,Sweden,Ryds Bilglas  Tunby,Strömledningsgatan 1,72137,Västerås,+46,0771-411411,vasteras.tunby@rydsbilglas.se
145,Sweden,Ryds Bilglas  Ängsgärdet,Malmabergsgatan 23-25,72130,Västerås,+46,0771-411411,angsgardet@rydsbilglas.se
146,Sweden,Ryds Bilglas  Norremark,Erik Norbergs Väg 5,35245,Växjö,+46,0771-411411,vaxjo.norremark@rydsbilglas.se
147,Sweden,Ryds Bilglas  Slöjdgatan,Slöjdgatan 2,35246,Växjö,+46,0771-411411,vaxjo@rydsbilglas.se
148,Sweden,Ryds Bilglas Ystad,Östra Zinkgatan 3,27139,Ystad,+46,0771-411411,ystad@rydsbilglas.se
149,Sweden,Ryds Bilglas Åre,Årevägen 2,83751,Åre,+46,0647-160700763,are@rydsbilglas.se
150,Sweden,Ryds Bilglas Älvängen,Hålstensvägen 20,44637,Älvängen,+46,0771411411,alvangen@rydsbilglas.se
151,Sweden,Ryds Bilglas Ängelholm,Heimdallgatan 35,26271,Ängelholm,+46,0771-411411,angelholm@rydsbilglas.se
152,Sweden,Ryds Bilglas  Bettorpsgatan,Bettorpsgatan 10,70369,Örebro,+46,0771-411411,orebro.bettorp@rydsbilglas.se
153,Sweden,Ryds Bilglas  Boglundsängen,Hedgatan 38,70374,Örebro,+46,0771-411411,orebro.boglundsangen@rydsbilglas.se
154,Sweden,Ryds Bilglas  Elementvägen,Elementvägen 12,70227,Örebro,+46,0771-411411,orebro.elementvagen@rydsbilglas.se
155,Sweden,Ryds Bilglas Örnsköldsvik,Gamla Riksvägen 4e,89150,Örnsköldsvik,+46,0771-411411,ornskoldsvik@rydsbilglas.se
156,Sweden,Ryds Bilglas Östersund,Bangårdsgatan 30,83145,Östersund,+46,0771-411411,ostersund@rydsbilglas.se
157,Sweden,Ryds Bilglas Östhammar,Verkstadsvägen 5,74234,Östhammar,+46,0771-411411,osthammar@rydsbilglas.se
